{"type":"FeatureCollection","features":[{"type":"Feature","properties":{},"geometry":{"type":"GeometryCollection","geometries":[{"type":"LineString","coordinates":[[-42.77692,-6.90894],[-42.78892,-6.90648]]},{"type":"LineString","coordinates":[[-44.76796,-10.92055],[-44.77607,-10.91191]]},{"type":"LineString","coordinates":[[-44.639,-14.41598],[-44.62811,-14.42125]]},{"type":"LineString","coordinates":[[-44.3804,-14.68009],[-44.37723,-14.68859]]},{"type":"LineString","coordinates":[[-42.64459,-14.15838],[-42.64931,-14.14909]]},{"type":"LineString","coordinates":[[-40.05222,-13.18085],[-40.04199,-13.18501]]},{"type":"LineString","coordinates":[[-36.69801,-5.07997],[-36.69558,-5.06975]]},{"type":"LineString","coordinates":[[-38.47468,-3.70935],[-38.47616,-3.70035]]},{"type":"Polygon","coordinates":[[[-41.7308,-2.80665],[-41.77628,-2.77077],[-41.79549,-2.74849],[-41.84689,-2.78246],[-41.83986,-2.82322],[-41.86369,-2.87521],[-41.79413,-2.96422],[-41.84648,-3.04211],[-41.89288,-3.09166],[-41.86466,-3.13631],[-41.82412,-3.16817],[-41.78007,-3.20918],[-41.76182,-3.2137],[-41.7459,-3.24527],[-41.68701,-3.31467],[-41.67781,-3.33015],[-41.62465,-3.36856],[-41.5819,-3.39171],[-41.58533,-3.42221],[-41.58424,-3.46929],[-41.53196,-3.5114],[-41.55039,-3.53835],[-41.57478,-3.55062],[-41.60456,-3.56949],[-41.59608,-3.59358],[-41.56596,-3.57488],[-41.54747,-3.57248],[-41.52791,-3.5546],[-41.51891,-3.5701],[-41.51824,-3.58257],[-41.50699,-3.57987],[-41.52384,-3.60547],[-41.4853,-3.60792],[-41.48,-3.62363],[-41.48486,-3.66038],[-41.47963,-3.67018],[-41.46053,-3.65444],[-41.43371,-3.67239],[-41.45275,-3.70062],[-41.42283,-3.74315],[-41.41539,-3.76788],[-41.3873,-3.75992],[-41.36116,-3.83291],[-41.40119,-3.87909],[-41.42078,-3.86514],[-41.46597,-3.88911],[-41.48947,-3.8884],[-41.51781,-3.92349],[-41.50306,-3.85254],[-41.55077,-3.85398],[-41.58906,-3.90223],[-41.62616,-3.91096],[-41.65849,-3.96897],[-41.65128,-3.98558],[-41.59436,-3.99189],[-41.57591,-3.99304],[-41.56406,-4.00418],[-41.54531,-4.00985],[-41.55017,-4.01744],[-41.49144,-4.01794],[-41.47542,-4.01095],[-41.5066,-4.05054],[-41.54928,-4.0401],[-41.5505,-4.06545],[-41.52778,-4.05802],[-41.53033,-4.06846],[-41.55043,-4.09434],[-41.55232,-4.11652],[-41.57156,-4.19605],[-41.56145,-4.22227],[-41.58447,-4.2246],[-41.53462,-4.26368],[-41.62678,-4.2642],[-41.66729,-4.28565],[-41.69586,-4.31667],[-41.73287,-4.346],[-41.74002,-4.38785],[-41.67483,-4.42776],[-41.65378,-4.42616],[-41.66057,-4.40845],[-41.59581,-4.41064],[-41.55235,-4.44741],[-41.53487,-4.42365],[-41.45513,-4.39755],[-41.43759,-4.41084],[-41.42167,-4.41517],[-41.45152,-4.46163],[-41.44214,-4.48098],[-41.45947,-4.51912],[-41.44579,-4.52595],[-41.47203,-4.5786],[-41.45415,-4.63013],[-41.46153,-4.65986],[-41.49258,-4.66568],[-41.47291,-4.70296],[-41.47055,-4.76309],[-41.52346,-4.78591],[-41.57026,-4.86655],[-41.57906,-4.8984],[-41.55085,-4.92522],[-41.49134,-4.94624],[-41.50816,-4.99192],[-41.4733,-5.03864],[-41.48138,-5.05961],[-41.49757,-5.0547],[-41.53462,-5.06327],[-41.54638,-5.09806],[-41.53144,-5.1583],[-41.48127,-5.18342],[-41.429,-5.19049],[-41.44223,-5.22947],[-41.43314,-5.25185],[-41.44904,-5.27883],[-41.44759,-5.31946],[-41.40067,-5.36067],[-41.38914,-5.38265],[-41.42661,-5.38634],[-41.47061,-5.45067],[-41.47395,-5.46662],[-41.44338,-5.49191],[-41.40684,-5.51063],[-41.41381,-5.52944],[-41.35925,-5.51203],[-41.34654,-5.52058],[-41.35508,-5.53183],[-41.31798,-5.5441],[-41.30803,-5.58646],[-41.27756,-5.56912],[-41.28857,-5.59358],[-41.3314,-5.63222],[-41.33293,-5.656],[-41.31419,-5.68274],[-41.3903,-5.71316],[-41.43417,-5.71727],[-41.439,-5.78392],[-41.4317,-5.83796],[-41.45359,-5.83413],[-41.49535,-5.873],[-41.5006,-5.906],[-41.54615,-5.9165],[-41.53991,-5.93404],[-41.51486,-5.92285],[-41.48921,-5.95262],[-41.50218,-5.97666],[-41.47633,-5.97791],[-41.4613,-6.00798],[-41.47394,-5.94146],[-41.47395,-5.92348],[-41.4718,-5.9029],[-41.44657,-5.87184],[-41.42365,-5.90693],[-41.45468,-5.94069],[-41.42867,-5.98125],[-41.41204,-6.05245],[-41.41238,-6.06565],[-41.40102,-6.08445],[-41.41334,-6.11047],[-41.41636,-6.14045],[-41.41322,-6.16052],[-41.44399,-6.18145],[-41.46603,-6.24759],[-41.49484,-6.23937],[-41.47736,-6.19129],[-41.5022,-6.17558],[-41.52656,-6.18013],[-41.54123,-6.16618],[-41.58146,-6.19308],[-41.59252,-6.19348],[-41.5753,-6.25115],[-41.61627,-6.26093],[-41.65198,-6.29215],[-41.63209,-6.31803],[-41.62831,-6.38378],[-41.61966,-6.40716],[-41.69393,-6.43114],[-41.65139,-6.4888],[-41.62638,-6.52663],[-41.66261,-6.56321],[-41.67983,-6.54044],[-41.68424,-6.55245],[-41.67675,-6.60712],[-41.67588,-6.62301],[-41.74005,-6.65653],[-41.82537,-6.65762],[-41.83415,-6.68361],[-41.82442,-6.70201],[-41.84234,-6.70995],[-41.83507,-6.74884],[-41.86961,-6.75964],[-41.86074,-6.79704],[-41.90466,-6.81788],[-41.92052,-6.82435],[-41.9892,-6.83202],[-41.988,-6.7761],[-41.96242,-6.76014],[-41.99828,-6.72176],[-41.95029,-6.67049],[-41.93866,-6.63638],[-41.95959,-6.61891],[-41.96104,-6.63634],[-41.95258,-6.64001],[-41.96522,-6.65814],[-41.99106,-6.65701],[-41.98438,-6.69107],[-42.00688,-6.67591],[-42.04389,-6.72151],[-42.07875,-6.75209],[-42.08154,-6.702],[-42.07134,-6.69449],[-42.08832,-6.69015],[-42.03838,-6.66151],[-42.07837,-6.64963],[-42.09716,-6.67147],[-42.12452,-6.65775],[-42.12781,-6.6753],[-42.10582,-6.71162],[-42.1181,-6.75404],[-42.17287,-6.75213],[-42.16715,-6.74352],[-42.18267,-6.73638],[-42.18634,-6.7186],[-42.20824,-6.73534],[-42.20062,-6.69303],[-42.21795,-6.67576],[-42.21512,-6.65036],[-42.25565,-6.6743],[-42.29053,-6.66028],[-42.30831,-6.66935],[-42.28683,-6.61385],[-42.28974,-6.60182],[-42.30305,-6.60697],[-42.30978,-6.62357],[-42.31421,-6.61515],[-42.34385,-6.62735],[-42.33315,-6.60606],[-42.34653,-6.59695],[-42.37739,-6.60334],[-42.38803,-6.6109],[-42.3994,-6.58611],[-42.36364,-6.5835],[-42.3568,-6.54969],[-42.38379,-6.51767],[-42.39763,-6.49771],[-42.42227,-6.51519],[-42.42067,-6.48821],[-42.39911,-6.4748],[-42.3992,-6.44029],[-42.41315,-6.43354],[-42.45178,-6.39704],[-42.48392,-6.40652],[-42.48216,-6.42631],[-42.51271,-6.43501],[-42.5038,-6.39379],[-42.55137,-6.42145],[-42.60988,-6.42024],[-42.63526,-6.42923],[-42.6754,-6.4166],[-42.72056,-6.42947],[-42.74309,-6.42616],[-42.76041,-6.43817],[-42.7516,-6.3637],[-42.78803,-6.36697],[-42.78703,-6.43056],[-42.84433,-6.38833],[-42.86453,-6.44098],[-42.86885,-6.54359],[-42.89164,-6.61996],[-42.90364,-6.69174],[-42.86588,-6.696],[-42.80419,-6.6279],[-42.79203,-6.65531],[-42.812,-6.6676],[-42.7726,-6.68861],[-42.73734,-6.69884],[-42.72632,-6.72477],[-42.74306,-6.72941],[-42.76294,-6.71876],[-42.78214,-6.74204],[-42.7472,-6.75962],[-42.75279,-6.78383],[-42.78126,-6.77232],[-42.75704,-6.8188],[-42.79774,-6.86852],[-42.77692,-6.90894],[-42.69974,-6.89602],[-42.67412,-6.92374],[-42.68783,-6.96118],[-42.74656,-6.96467],[-42.73246,-7.01426],[-42.72729,-7.02792],[-42.75969,-7.03819],[-42.74298,-7.05691],[-42.75689,-7.06844],[-42.72892,-7.07192],[-42.7132,-7.14749],[-42.74064,-7.16545],[-42.74374,-7.2193],[-42.76146,-7.23441],[-42.74872,-7.27339],[-42.74326,-7.25553],[-42.72877,-7.2736],[-42.7402,-7.34236],[-42.73166,-7.36817],[-42.78145,-7.37807],[-42.79266,-7.37416],[-42.77943,-7.41339],[-42.81517,-7.45628],[-42.83728,-7.47784],[-42.82974,-7.50972],[-42.72086,-7.52335],[-42.71196,-7.4609],[-42.71288,-7.44064],[-42.67659,-7.44054],[-42.67675,-7.40374],[-42.68088,-7.38798],[-42.66598,-7.37765],[-42.66865,-7.3494],[-42.62372,-7.34433],[-42.5924,-7.29962],[-42.57535,-7.36191],[-42.60978,-7.37351],[-42.61902,-7.40709],[-42.62849,-7.51594],[-42.60919,-7.52162],[-42.60958,-7.53263],[-42.5985,-7.51392],[-42.60333,-7.47164],[-42.5848,-7.44089],[-42.58463,-7.42506],[-42.55581,-7.43802],[-42.56303,-7.4785],[-42.58625,-7.51162],[-42.58127,-7.54686],[-42.6099,-7.63017],[-42.64554,-7.63371],[-42.66524,-7.68398],[-42.74103,-7.66445],[-42.73144,-7.64013],[-42.76393,-7.63897],[-42.78467,-7.64607],[-42.80519,-7.62349],[-42.85362,-7.66183],[-42.86883,-7.66371],[-42.89073,-7.59601],[-42.87543,-7.58066],[-42.89116,-7.53791],[-42.91257,-7.52888],[-42.93187,-7.53393],[-42.95164,-7.50437],[-42.97548,-7.50177],[-42.99118,-7.51923],[-43.02863,-7.49437],[-43.04836,-7.5074],[-43.12092,-7.55388],[-43.14055,-7.57548],[-43.15176,-7.58675],[-43.18599,-7.56785],[-43.15597,-7.54366],[-43.17584,-7.53241],[-43.18163,-7.51734],[-43.23095,-7.55379],[-43.19834,-7.57466],[-43.22188,-7.58553],[-43.24734,-7.55716],[-43.27346,-7.57593],[-43.289,-7.58656],[-43.30288,-7.59598],[-43.31785,-7.55885],[-43.32911,-7.56364],[-43.38276,-7.53301],[-43.36862,-7.56882],[-43.39166,-7.59405],[-43.42225,-7.56976],[-43.44045,-7.56683],[-43.45226,-7.50155],[-43.43933,-7.48756],[-43.42375,-7.43754],[-43.41516,-7.41382],[-43.44737,-7.40788],[-43.46293,-7.41914],[-43.46384,-7.39966],[-43.48791,-7.37822],[-43.5415,-7.37671],[-43.50434,-7.35321],[-43.52987,-7.32139],[-43.54101,-7.32473],[-43.54097,-7.35056],[-43.55943,-7.34736],[-43.55133,-7.31916],[-43.56682,-7.32506],[-43.59535,-7.30025],[-43.6124,-7.30574],[-43.62184,-7.37399],[-43.61619,-7.38337],[-43.58865,-7.3913],[-43.56833,-7.39746],[-43.59736,-7.41713],[-43.60898,-7.46762],[-43.55613,-7.4595],[-43.53423,-7.50144],[-43.57238,-7.52625],[-43.59888,-7.52231],[-43.60348,-7.55047],[-43.57088,-7.55159],[-43.5664,-7.57013],[-43.50917,-7.54714],[-43.51934,-7.56874],[-43.5065,-7.61393],[-43.55789,-7.63453],[-43.61006,-7.64197],[-43.62069,-7.68665],[-43.66581,-7.69093],[-43.66463,-7.68021],[-43.71442,-7.71012],[-43.70945,-7.75432],[-43.73525,-7.7767],[-43.77194,-7.77438],[-43.77112,-7.79462],[-43.75771,-7.81129],[-43.75446,-7.82498],[-43.74259,-7.83875],[-43.75883,-7.8911],[-43.78014,-7.89986],[-43.77319,-7.93388],[-43.70504,-7.92934],[-43.71058,-7.95116],[-43.74823,-7.95453],[-43.76833,-7.97349],[-43.66491,-8.00247],[-43.67755,-8.06071],[-43.70235,-8.07262],[-43.71354,-8.0627],[-43.70199,-8.04852],[-43.74457,-8.05587],[-43.75287,-8.02586],[-43.77144,-8.02223],[-43.77253,-8.00037],[-43.78634,-8.02133],[-43.81333,-8.2142],[-43.82181,-8.1776],[-43.83097,-8.16585],[-43.85942,-8.18277],[-43.88443,-8.20107],[-43.96677,-8.19312],[-44.02132,-8.17643],[-44.09462,-8.19843],[-44.10595,-8.2244],[-44.12219,-8.23456],[-44.10656,-8.25681],[-44.11534,-8.28503],[-44.07424,-8.2858],[-44.06043,-8.28658],[-44.05705,-8.27753],[-44.03649,-8.28536],[-43.92416,-8.26299],[-43.94262,-8.3102],[-43.95372,-8.31619],[-43.97402,-8.30676],[-43.99446,-8.30756],[-44.0342,-8.30497],[-44.11478,-8.33652],[-44.14515,-8.32347],[-44.20772,-8.35777],[-44.24188,-8.37286],[-44.23378,-8.39822],[-44.20503,-8.42581],[-44.21483,-8.45362],[-44.19317,-8.45964],[-44.19191,-8.47443],[-44.15772,-8.46046],[-44.14152,-8.4581],[-44.14852,-8.43803],[-44.08026,-8.42046],[-44.04035,-8.44103],[-44.00148,-8.43211],[-44.00036,-8.49001],[-43.98575,-8.49584],[-44.00019,-8.52746],[-43.97695,-8.5564],[-43.94203,-8.5327],[-43.89818,-8.55114],[-43.90616,-8.56999],[-43.90559,-8.58302],[-43.92056,-8.5992],[-43.89131,-8.6182],[-43.87579,-8.64228],[-43.86162,-8.63043],[-43.8613,-8.64045],[-43.83083,-8.64434],[-43.83755,-8.65969],[-43.85466,-8.66627],[-43.81284,-8.68995],[-43.79017,-8.69786],[-43.77656,-8.72746],[-43.73845,-8.75829],[-43.74503,-8.77485],[-43.69579,-8.82776],[-43.69752,-8.83831],[-43.75334,-8.79234],[-43.82376,-8.76743],[-43.85242,-8.77126],[-43.82368,-8.81478],[-43.81781,-8.83967],[-43.83742,-8.85362],[-43.80252,-8.8645],[-43.73544,-8.85206],[-43.66785,-8.91357],[-43.66928,-8.94671],[-43.69415,-8.9644],[-43.76503,-8.94353],[-43.7857,-8.95668],[-43.75803,-8.9865],[-43.7374,-8.98221],[-43.7331,-8.99363],[-43.75669,-9.00087],[-43.70586,-9.01901],[-43.67542,-9.06537],[-43.69543,-9.06874],[-43.76548,-9.01992],[-43.8006,-9.02135],[-43.80788,-9.00987],[-43.82542,-9.0698],[-43.82592,-9.13893],[-43.83421,-9.15002],[-43.84218,-9.14019],[-43.8324,-9.09722],[-43.84975,-9.09016],[-43.84534,-9.01377],[-43.85954,-8.98578],[-43.86947,-8.98817],[-43.90937,-9.03718],[-43.89507,-9.05256],[-43.91107,-9.08783],[-43.93446,-9.07964],[-43.93954,-9.10727],[-43.89408,-9.1334],[-43.89293,-9.1554],[-43.91877,-9.1456],[-43.95031,-9.13233],[-43.9438,-9.17623],[-43.90368,-9.19771],[-43.95346,-9.18738],[-43.96178,-9.20064],[-43.99051,-9.15385],[-43.96491,-9.10557],[-43.98689,-9.08168],[-43.99642,-9.08333],[-43.98236,-9.05435],[-43.96164,-9.04551],[-44.01587,-9.02481],[-44.02546,-9.04695],[-43.99642,-9.13043],[-44.04517,-9.18161],[-44.09241,-9.16621],[-44.10024,-9.18524],[-44.12417,-9.21798],[-44.08696,-9.24555],[-44.07783,-9.25789],[-44.05841,-9.25283],[-44.05338,-9.29112],[-44.03361,-9.26355],[-44.02258,-9.28088],[-43.98173,-9.29215],[-43.99851,-9.29685],[-44.02879,-9.29751],[-44.04114,-9.31704],[-44.13113,-9.29117],[-44.14006,-9.31457],[-44.12925,-9.32902],[-44.15978,-9.3291],[-44.17356,-9.35321],[-44.07728,-9.43003],[-44.01436,-9.45898],[-43.96509,-9.45222],[-43.92637,-9.46721],[-43.90643,-9.49259],[-43.88503,-9.49908],[-43.88372,-9.53399],[-43.85228,-9.56189],[-43.84444,-9.57814],[-43.81002,-9.54323],[-43.79437,-9.5546],[-43.85313,-9.63676],[-43.85234,-9.64851],[-43.88017,-9.66697],[-43.94305,-9.70632],[-43.95805,-9.73282],[-44.00507,-9.73322],[-44.0037,-9.76014],[-44.00664,-9.78301],[-44.05984,-9.79304],[-44.09464,-9.78631],[-44.08915,-9.81826],[-44.11675,-9.80873],[-44.14071,-9.79047],[-44.16373,-9.81311],[-44.19427,-9.81866],[-44.2194,-9.76847],[-44.17195,-9.77191],[-44.14908,-9.7379],[-44.12302,-9.75028],[-44.10823,-9.74005],[-44.09539,-9.74727],[-44.09552,-9.70787],[-44.06868,-9.70906],[-44.05127,-9.68573],[-44.06269,-9.64998],[-44.02622,-9.66409],[-43.9862,-9.63394],[-43.95476,-9.63412],[-43.94296,-9.56863],[-43.96326,-9.55733],[-43.99663,-9.48992],[-44.02215,-9.49025],[-44.03296,-9.517],[-44.04649,-9.50022],[-44.05835,-9.46931],[-44.09178,-9.44661],[-44.12125,-9.47159],[-44.13333,-9.48949],[-44.21474,-9.49569],[-44.1499,-9.53396],[-44.14317,-9.54805],[-44.10377,-9.54855],[-44.14162,-9.56742],[-44.16423,-9.56163],[-44.17415,-9.53846],[-44.17707,-9.54712],[-44.2702,-9.50852],[-44.3008,-9.51984],[-44.28773,-9.57115],[-44.25731,-9.60094],[-44.28396,-9.60169],[-44.29857,-9.57844],[-44.31925,-9.59216],[-44.33294,-9.62323],[-44.38626,-9.66213],[-44.42303,-9.69177],[-44.40864,-9.69694],[-44.37137,-9.69693],[-44.35246,-9.71571],[-44.30448,-9.7215],[-44.36115,-9.74205],[-44.36645,-9.75841],[-44.4022,-9.78455],[-44.44333,-9.78498],[-44.45042,-9.75729],[-44.46739,-9.75118],[-44.46916,-9.7659],[-44.49312,-9.73953],[-44.52226,-9.75756],[-44.54231,-9.75908],[-44.55934,-9.77967],[-44.57887,-9.80149],[-44.57817,-9.82458],[-44.55175,-9.85599],[-44.56974,-9.86005],[-44.59924,-9.83202],[-44.61355,-9.83112],[-44.5877,-9.87222],[-44.61682,-9.89999],[-44.59734,-9.93646],[-44.62575,-9.97432],[-44.64415,-9.97731],[-44.64509,-9.98652],[-44.6293,-10.01571],[-44.65267,-10.02811],[-44.65461,-10.10177],[-44.64913,-10.16567],[-44.68255,-10.19035],[-44.71034,-10.18449],[-44.67294,-10.21024],[-44.63837,-10.20453],[-44.65251,-10.22011],[-44.68866,-10.23424],[-44.70226,-10.24375],[-44.7288,-10.21285],[-44.73397,-10.22678],[-44.71602,-10.24949],[-44.70545,-10.28174],[-44.74965,-10.31392],[-44.8042,-10.37705],[-44.83646,-10.40298],[-44.82634,-10.40972],[-44.84723,-10.43068],[-44.88715,-10.42592],[-44.89611,-10.42936],[-44.86453,-10.444],[-44.86531,-10.48479],[-44.89267,-10.50462],[-44.89804,-10.51395],[-44.85055,-10.51748],[-44.82742,-10.47203],[-44.79554,-10.44783],[-44.76693,-10.48234],[-44.76644,-10.49559],[-44.7401,-10.51248],[-44.73109,-10.53716],[-44.71501,-10.54677],[-44.69605,-10.56977],[-44.67367,-10.57225],[-44.70444,-10.62573],[-44.73407,-10.66869],[-44.7655,-10.67154],[-44.78199,-10.6629],[-44.76701,-10.708],[-44.86228,-10.87113],[-44.87886,-10.92053],[-44.8603,-10.918],[-44.83113,-10.86715],[-44.80386,-10.80283],[-44.7757,-10.78609],[-44.75743,-10.73328],[-44.74316,-10.7304],[-44.75376,-10.76317],[-44.73821,-10.76419],[-44.71109,-10.68846],[-44.66295,-10.64681],[-44.67044,-10.63913],[-44.6563,-10.63016],[-44.64023,-10.63841],[-44.6066,-10.61926],[-44.57925,-10.62162],[-44.56996,-10.60291],[-44.52754,-10.59056],[-44.48469,-10.61835],[-44.4273,-10.53972],[-44.41859,-10.53556],[-44.42588,-10.58148],[-44.4121,-10.5847],[-44.35338,-10.52969],[-44.35649,-10.48332],[-44.37638,-10.47065],[-44.36186,-10.44904],[-44.33751,-10.46206],[-44.32953,-10.47726],[-44.31124,-10.47379],[-44.30267,-10.53512],[-44.28579,-10.52637],[-44.27573,-10.51125],[-44.26606,-10.5732],[-44.2623,-10.6101],[-44.24884,-10.58876],[-44.2102,-10.62914],[-44.23016,-10.65599],[-44.25543,-10.66718],[-44.27753,-10.65117],[-44.26141,-10.67928],[-44.29116,-10.68003],[-44.29697,-10.69015],[-44.3245,-10.67807],[-44.39018,-10.68324],[-44.39387,-10.70029],[-44.34966,-10.69695],[-44.32845,-10.7179],[-44.38136,-10.75377],[-44.37109,-10.8178],[-44.38428,-10.82117],[-44.40409,-10.8137],[-44.42694,-10.80061],[-44.44439,-10.7753],[-44.49496,-10.7879],[-44.51718,-10.79203],[-44.60643,-10.79769],[-44.64062,-10.81826],[-44.65004,-10.85882],[-44.76796,-10.92055],[-44.7646,-10.96026],[-44.78459,-10.9694],[-44.79565,-10.99733],[-44.77698,-11.02112],[-44.75259,-11.07138],[-44.70964,-11.09144],[-44.69188,-11.08349],[-44.66667,-11.12769],[-44.65299,-11.11338],[-44.64019,-11.10757],[-44.64439,-11.08234],[-44.62052,-11.07848],[-44.63472,-11.06013],[-44.61126,-11.02799],[-44.5999,-11.05793],[-44.60301,-11.0853],[-44.56787,-11.07135],[-44.56657,-11.05337],[-44.54338,-11.02555],[-44.51464,-11.02115],[-44.41646,-11.00051],[-44.35621,-11.03475],[-44.32661,-10.93539],[-44.34283,-10.8981],[-44.28164,-10.87316],[-44.21879,-10.96858],[-44.18934,-10.99504],[-44.13905,-10.90945],[-44.13761,-10.86037],[-44.11486,-10.8604],[-44.09243,-10.90295],[-44.06779,-10.95641],[-44.052,-10.96859],[-44.05789,-10.99679],[-44.04839,-11.01712],[-44.04727,-11.05254],[-44.01445,-11.06204],[-43.99764,-11.07013],[-44.01864,-11.09142],[-44.00992,-11.14345],[-43.99388,-11.18779],[-43.92875,-11.22821],[-43.83719,-11.36453],[-43.85191,-11.39826],[-43.86291,-11.4177],[-43.87476,-11.45021],[-43.94576,-11.45261],[-43.99238,-11.51108],[-44.02728,-11.53129],[-44.03642,-11.56416],[-44.07573,-11.57866],[-44.07188,-11.61324],[-44.11601,-11.62121],[-44.14803,-11.62035],[-44.16405,-11.66606],[-44.19496,-11.72017],[-44.22276,-11.72266],[-44.24298,-11.77303],[-44.30966,-11.79747],[-44.3402,-11.81194],[-44.42465,-11.78605],[-44.44994,-11.7634],[-44.5167,-11.72519],[-44.6184,-11.73272],[-44.66326,-11.76359],[-44.70139,-11.8187],[-44.72225,-11.84262],[-44.77583,-11.8812],[-44.81714,-11.89423],[-44.82763,-11.93853],[-44.86778,-11.95195],[-44.902,-12.01522],[-44.91779,-12.0274],[-44.90769,-12.03695],[-44.94404,-12.06561],[-44.89641,-12.11757],[-44.86659,-12.10857],[-44.85582,-12.11651],[-44.86321,-12.12566],[-44.83366,-12.13367],[-44.8207,-12.11955],[-44.82754,-12.10854],[-44.79289,-12.08088],[-44.76658,-12.09322],[-44.74039,-12.08121],[-44.71861,-12.06882],[-44.70292,-12.08713],[-44.70451,-12.11538],[-44.70019,-12.14785],[-44.65194,-12.12261],[-44.63838,-12.11483],[-44.62584,-12.12273],[-44.62461,-12.10964],[-44.67484,-12.06097],[-44.65722,-12.05685],[-44.61021,-12.08519],[-44.60224,-12.10738],[-44.59269,-12.10817],[-44.58977,-12.13218],[-44.559,-12.12747],[-44.55492,-12.09968],[-44.57157,-12.08537],[-44.56061,-12.07562],[-44.60133,-12.0524],[-44.56069,-12.03797],[-44.51475,-12.04528],[-44.51257,-12.07693],[-44.44379,-12.09395],[-44.46376,-12.12334],[-44.4366,-12.13012],[-44.39736,-12.11076],[-44.39146,-12.13675],[-44.36336,-12.11628],[-44.34474,-12.11027],[-44.33821,-12.10203],[-44.30932,-12.10207],[-44.30076,-12.08925],[-44.2854,-12.12197],[-44.24653,-12.1124],[-44.2359,-12.11966],[-44.17195,-12.07733],[-44.16301,-12.05716],[-44.12554,-12.05751],[-44.10766,-12.04312],[-44.07997,-12.05726],[-44.03961,-12.04147],[-44.04229,-12.07161],[-44.03134,-12.08341],[-44.03885,-12.10916],[-44.05291,-12.13319],[-44.02021,-12.13295],[-44.03048,-12.14974],[-44.03811,-12.16628],[-44.00138,-12.17258],[-43.96942,-12.15607],[-43.97053,-12.18012],[-43.92751,-12.17383],[-43.94904,-12.21252],[-43.90864,-12.212],[-43.8794,-12.21102],[-43.85878,-12.22243],[-43.84118,-12.24356],[-43.85807,-12.29404],[-43.86291,-12.31655],[-43.85361,-12.31634],[-43.84569,-12.36564],[-43.87659,-12.38615],[-43.86932,-12.40141],[-43.92319,-12.39343],[-43.88779,-12.34226],[-43.9378,-12.35415],[-43.95089,-12.37961],[-43.96628,-12.38797],[-43.95753,-12.41641],[-43.94517,-12.42318],[-43.95488,-12.46099],[-43.98186,-12.45792],[-43.99443,-12.47838],[-44.02423,-12.46933],[-44.03389,-12.50748],[-44.01666,-12.52737],[-44.00463,-12.52688],[-44.01927,-12.54446],[-44.03911,-12.55533],[-44.03495,-12.57025],[-44.04909,-12.59328],[-44.06513,-12.60734],[-44.05414,-12.62837],[-44.11133,-12.68354],[-44.16256,-12.6944],[-44.13894,-12.71168],[-44.14658,-12.74242],[-44.12389,-12.74636],[-44.11061,-12.76765],[-44.09391,-12.76782],[-44.12328,-12.79066],[-44.10034,-12.81476],[-44.11847,-12.82906],[-44.09421,-12.84503],[-44.13373,-12.83963],[-44.14065,-12.84933],[-44.11234,-12.8779],[-44.09395,-12.89347],[-44.08181,-12.89492],[-44.08841,-12.91569],[-44.11521,-12.90805],[-44.13017,-12.92318],[-44.14354,-12.91142],[-44.12984,-12.90026],[-44.13402,-12.8908],[-44.165,-12.90728],[-44.1891,-12.95485],[-44.1735,-12.96206],[-44.20575,-13.00463],[-44.16463,-13.03975],[-44.21047,-13.03053],[-44.23139,-13.05538],[-44.21381,-13.05919],[-44.22495,-13.08163],[-44.20642,-13.09061],[-44.18917,-13.11168],[-44.21186,-13.14821],[-44.21013,-13.17204],[-44.22201,-13.16118],[-44.22875,-13.19087],[-44.24811,-13.18093],[-44.22134,-13.22405],[-44.22863,-13.33562],[-44.25166,-13.32294],[-44.26233,-13.27684],[-44.27507,-13.22793],[-44.29002,-13.21394],[-44.28755,-13.30237],[-44.31775,-13.33201],[-44.33451,-13.31474],[-44.34102,-13.33436],[-44.35841,-13.33016],[-44.35288,-13.32264],[-44.37061,-13.31635],[-44.37148,-13.27368],[-44.35767,-13.25091],[-44.37245,-13.23592],[-44.41559,-13.25445],[-44.40877,-13.2273],[-44.42273,-13.22511],[-44.43701,-13.24244],[-44.4705,-13.24352],[-44.48992,-13.22399],[-44.49386,-13.21451],[-44.50596,-13.21056],[-44.48538,-13.19425],[-44.50623,-13.16317],[-44.49695,-13.1578],[-44.50788,-13.14193],[-44.53147,-13.16055],[-44.55963,-13.13993],[-44.56871,-13.10988],[-44.621,-13.08464],[-44.62764,-13.09841],[-44.62337,-13.15459],[-44.64056,-13.16244],[-44.68158,-13.12389],[-44.69044,-13.13358],[-44.66609,-13.15785],[-44.68218,-13.17759],[-44.6601,-13.18119],[-44.65818,-13.20253],[-44.62339,-13.22789],[-44.64253,-13.23895],[-44.66292,-13.25321],[-44.63533,-13.28033],[-44.60482,-13.27508],[-44.60348,-13.29607],[-44.6448,-13.32447],[-44.66754,-13.31716],[-44.67235,-13.33889],[-44.58754,-13.38416],[-44.62941,-13.44155],[-44.63819,-13.422],[-44.6573,-13.42914],[-44.68437,-13.42506],[-44.6561,-13.45865],[-44.72328,-13.48939],[-44.7359,-13.53536],[-44.69858,-13.53434],[-44.69603,-13.55334],[-44.66206,-13.54523],[-44.65814,-13.52172],[-44.63358,-13.55538],[-44.61604,-13.52969],[-44.60116,-13.53657],[-44.58777,-13.49496],[-44.56879,-13.50495],[-44.5402,-13.48494],[-44.5092,-13.53667],[-44.4782,-13.52775],[-44.47413,-13.50337],[-44.44126,-13.50604],[-44.38921,-13.48121],[-44.39983,-13.53699],[-44.44308,-13.57279],[-44.4754,-13.55139],[-44.49743,-13.56491],[-44.53784,-13.58343],[-44.50379,-13.62829],[-44.55696,-13.64611],[-44.57906,-13.64493],[-44.57947,-13.66443],[-44.6067,-13.65834],[-44.59586,-13.68336],[-44.63404,-13.70879],[-44.63537,-13.72225],[-44.54812,-13.70082],[-44.49859,-13.72928],[-44.47472,-13.71545],[-44.46819,-13.75982],[-44.46352,-13.79307],[-44.47575,-13.79318],[-44.46314,-13.8095],[-44.45482,-13.82715],[-44.46599,-13.85639],[-44.43496,-13.85411],[-44.41366,-13.86107],[-44.41666,-13.8895],[-44.39874,-13.88358],[-44.39024,-13.85376],[-44.40063,-13.84317],[-44.39985,-13.78547],[-44.38839,-13.77706],[-44.39329,-13.76669],[-44.36122,-13.76477],[-44.35892,-13.721],[-44.38128,-13.70479],[-44.37227,-13.68001],[-44.33526,-13.67491],[-44.33599,-13.69043],[-44.35157,-13.70547],[-44.31965,-13.73746],[-44.28839,-13.72987],[-44.26594,-13.76124],[-44.25789,-13.77452],[-44.25994,-13.7837],[-44.21347,-13.80043],[-44.17644,-13.81099],[-44.19449,-13.84873],[-44.20016,-13.86671],[-44.22699,-13.8406],[-44.2436,-13.89669],[-44.21994,-13.90557],[-44.2496,-13.93424],[-44.26683,-13.93908],[-44.25479,-13.94204],[-44.26061,-13.9942],[-44.31043,-13.9907],[-44.30524,-13.96847],[-44.3238,-13.96426],[-44.34999,-13.98923],[-44.38938,-13.98984],[-44.41373,-13.9939],[-44.41259,-13.95183],[-44.43568,-13.95666],[-44.44709,-13.99377],[-44.4726,-13.99566],[-44.47061,-14.02994],[-44.48963,-14.07253],[-44.47233,-14.08106],[-44.48862,-14.11683],[-44.50144,-14.09179],[-44.51883,-14.0926],[-44.52632,-14.07734],[-44.53199,-14.13035],[-44.57009,-14.12769],[-44.55917,-14.16784],[-44.56048,-14.19084],[-44.54536,-14.2434],[-44.57872,-14.22451],[-44.59092,-14.24417],[-44.60844,-14.21947],[-44.5965,-14.20677],[-44.5985,-14.1965],[-44.64367,-14.19347],[-44.67894,-14.17625],[-44.64221,-14.22498],[-44.629,-14.22511],[-44.6863,-14.26845],[-44.67327,-14.27677],[-44.64604,-14.28236],[-44.64665,-14.26356],[-44.61569,-14.25589],[-44.58559,-14.28592],[-44.588,-14.33037],[-44.58025,-14.33752],[-44.63485,-14.36718],[-44.67853,-14.36409],[-44.67581,-14.41498],[-44.69986,-14.40131],[-44.69932,-14.42779],[-44.7191,-14.44854],[-44.69042,-14.46184],[-44.639,-14.41598],[-44.64677,-14.40566],[-44.59411,-14.39123],[-44.58282,-14.37453],[-44.56841,-14.39903],[-44.53841,-14.37624],[-44.50124,-14.39368],[-44.51986,-14.40264],[-44.53046,-14.44515],[-44.48681,-14.48546],[-44.48558,-14.50042],[-44.44408,-14.49858],[-44.44434,-14.54514],[-44.44539,-14.57113],[-44.47177,-14.58203],[-44.47405,-14.59098],[-44.39439,-14.57555],[-44.34371,-14.56453],[-44.33211,-14.61792],[-44.34819,-14.61593],[-44.36676,-14.60998],[-44.36905,-14.63576],[-44.40502,-14.62395],[-44.3823,-14.6597],[-44.40805,-14.65684],[-44.3804,-14.68009],[-44.34737,-14.65564],[-44.33999,-14.67992],[-44.38185,-14.70999],[-44.41294,-14.78222],[-44.43705,-14.79205],[-44.40792,-14.81711],[-44.39331,-14.79363],[-44.38085,-14.79647],[-44.37327,-14.81735],[-44.33179,-14.79699],[-44.33987,-14.77823],[-44.31247,-14.78194],[-44.30678,-14.76643],[-44.28698,-14.78023],[-44.2675,-14.7751],[-44.26679,-14.79344],[-44.29441,-14.8036],[-44.32482,-14.80907],[-44.37456,-14.84477],[-44.39503,-14.86087],[-44.36061,-14.86592],[-44.36113,-14.88342],[-44.30087,-14.87461],[-44.31587,-14.91369],[-44.27195,-14.91768],[-44.29807,-14.95226],[-44.28076,-14.95694],[-44.26125,-14.95532],[-44.24677,-14.9163],[-44.25621,-14.881],[-44.28193,-14.85744],[-44.24931,-14.8249],[-44.23358,-14.83378],[-44.23953,-14.8785],[-44.16561,-14.89442],[-44.18163,-14.91675],[-44.14001,-14.97207],[-44.18705,-15.0019],[-44.16591,-15.03395],[-44.1822,-15.04818],[-44.21673,-15.02401],[-44.2372,-15.04728],[-44.23322,-15.08608],[-44.2917,-15.05961],[-44.29667,-15.08086],[-44.28376,-15.10205],[-44.25907,-15.15447],[-44.258,-15.18311],[-44.29422,-15.20429],[-44.27969,-15.2185],[-44.29863,-15.21355],[-44.32251,-15.19207],[-44.30664,-15.16822],[-44.31041,-15.14785],[-44.32544,-15.14501],[-44.32877,-15.1705],[-44.35656,-15.14462],[-44.39961,-15.14264],[-44.4199,-15.19378],[-44.4241,-15.20644],[-44.44357,-15.24135],[-44.40561,-15.27867],[-44.42713,-15.28003],[-44.43726,-15.27376],[-44.43938,-15.29071],[-44.36911,-15.3148],[-44.36188,-15.35748],[-44.3755,-15.35737],[-44.40888,-15.34979],[-44.42597,-15.38468],[-44.44365,-15.38496],[-44.43752,-15.36155],[-44.48292,-15.33368],[-44.49505,-15.34003],[-44.46035,-15.36462],[-44.4756,-15.3742],[-44.45542,-15.42925],[-44.46342,-15.47104],[-44.48148,-15.45303],[-44.49564,-15.45779],[-44.52292,-15.51883],[-44.55096,-15.52883],[-44.58812,-15.52908],[-44.59348,-15.54989],[-44.62552,-15.54874],[-44.62594,-15.57299],[-44.594,-15.57895],[-44.59601,-15.59313],[-44.61336,-15.6082],[-44.59969,-15.62828],[-44.56403,-15.61419],[-44.58051,-15.64662],[-44.5599,-15.63365],[-44.54993,-15.66838],[-44.59539,-15.68306],[-44.67663,-15.77617],[-44.74912,-15.78619],[-44.81862,-15.84528],[-44.92951,-15.96602],[-45.04912,-15.97999],[-45.07658,-16.01245],[-45.06497,-16.0389],[-44.99901,-16.0318],[-44.94952,-16.0125],[-44.92857,-16.02949],[-44.92702,-16.08747],[-44.87311,-16.10924],[-44.83883,-16.1154],[-44.8366,-16.13947],[-44.79823,-16.14224],[-44.77948,-16.1454],[-44.76711,-16.14662],[-44.68614,-16.08826],[-44.67312,-16.04793],[-44.66331,-16.04612],[-44.62679,-15.99133],[-44.62539,-15.96997],[-44.58844,-15.97983],[-44.59489,-15.94125],[-44.56899,-15.90618],[-44.58141,-15.89325],[-44.56797,-15.88369],[-44.55292,-15.88788],[-44.53576,-15.87552],[-44.52654,-15.89771],[-44.51258,-15.90658],[-44.54025,-15.90814],[-44.53344,-15.94056],[-44.50649,-15.97512],[-44.49533,-16.00396],[-44.50324,-16.02444],[-44.47343,-16.04597],[-44.45327,-16.03017],[-44.41446,-16.06105],[-44.41954,-16.03151],[-44.39872,-16.02952],[-44.37448,-16.0251],[-44.31374,-15.96014],[-44.32411,-15.94741],[-44.36105,-15.95818],[-44.35453,-15.9123],[-44.36473,-15.89097],[-44.3205,-15.91682],[-44.31087,-15.89771],[-44.32359,-15.87971],[-44.31015,-15.85863],[-44.2951,-15.83905],[-44.27101,-15.8758],[-44.26048,-15.87715],[-44.25939,-15.82466],[-44.24749,-15.82093],[-44.24567,-15.83293],[-44.22686,-15.81575],[-44.21792,-15.82484],[-44.21067,-15.79392],[-44.18458,-15.77367],[-44.21279,-15.77312],[-44.21441,-15.73316],[-44.19493,-15.71911],[-44.21672,-15.71188],[-44.20298,-15.69694],[-44.20958,-15.69025],[-44.19316,-15.66632],[-44.17257,-15.67298],[-44.1616,-15.66364],[-44.14072,-15.6836],[-44.09825,-15.68487],[-44.08519,-15.69488],[-44.06797,-15.65048],[-44.05771,-15.72076],[-44.03263,-15.73777],[-44.10581,-15.77154],[-44.07626,-15.78917],[-44.05706,-15.78643],[-44.06109,-15.805],[-44.09271,-15.83908],[-44.10564,-15.81701],[-44.11024,-15.82811],[-44.12178,-15.80394],[-44.13338,-15.82723],[-44.1238,-15.84294],[-44.15357,-15.86029],[-44.11298,-15.88258],[-44.11921,-15.90158],[-44.06841,-15.89033],[-44.05685,-15.86738],[-44.03873,-15.86819],[-44.0393,-15.84822],[-44.01976,-15.86891],[-44.03871,-15.88009],[-44.04335,-15.90351],[-44.05825,-15.91009],[-44.0488,-15.93573],[-44.11505,-15.9285],[-44.10042,-15.97669],[-44.11064,-15.98087],[-44.12484,-15.94888],[-44.14857,-15.94705],[-44.14299,-15.96893],[-44.18386,-15.97653],[-44.19276,-15.97335],[-44.18182,-15.98952],[-44.14378,-15.99134],[-44.13645,-15.98499],[-44.13398,-16.01042],[-44.17127,-16.01408],[-44.17294,-16.05397],[-44.16173,-16.06502],[-44.13444,-16.04055],[-44.10599,-16.06219],[-44.07733,-16.09143],[-44.13443,-16.10188],[-44.13644,-16.11904],[-44.18182,-16.12853],[-44.1724,-16.16323],[-44.15514,-16.17145],[-44.20499,-16.21191],[-44.15736,-16.21387],[-44.08656,-16.15964],[-44.10034,-16.19487],[-44.01965,-16.15181],[-44.00827,-16.11877],[-43.96309,-16.14133],[-43.92139,-16.13535],[-43.92392,-16.15225],[-43.95233,-16.16272],[-43.91017,-16.20419],[-43.92948,-16.21363],[-43.92634,-16.26184],[-43.944,-16.28316],[-43.9912,-16.26756],[-43.99413,-16.29252],[-43.96965,-16.32373],[-43.98578,-16.33712],[-43.9456,-16.36941],[-43.93959,-16.34139],[-43.8669,-16.23557],[-43.85331,-16.24436],[-43.87228,-16.28213],[-43.86739,-16.30276],[-43.91536,-16.34854],[-43.9017,-16.38776],[-43.88067,-16.35971],[-43.85038,-16.30788],[-43.82945,-16.32435],[-43.82438,-16.35969],[-43.82856,-16.38089],[-43.81511,-16.37343],[-43.8008,-16.35546],[-43.79989,-16.41278],[-43.82178,-16.4189],[-43.8073,-16.44961],[-43.82729,-16.45614],[-43.8106,-16.46871],[-43.78802,-16.46061],[-43.8009,-16.51007],[-43.81064,-16.51988],[-43.79409,-16.55856],[-43.78173,-16.58223],[-43.75365,-16.58326],[-43.77204,-16.55835],[-43.78459,-16.55193],[-43.74607,-16.511],[-43.7214,-16.56097],[-43.68001,-16.58843],[-43.64473,-16.62938],[-43.62346,-16.61666],[-43.63551,-16.65907],[-43.59719,-16.66378],[-43.55736,-16.71049],[-43.52386,-16.66628],[-43.52087,-16.67509],[-43.51274,-16.66331],[-43.49018,-16.67014],[-43.48332,-16.61477],[-43.431,-16.43482],[-43.36909,-16.1477],[-43.34379,-16.04984],[-43.32938,-16.01745],[-43.25013,-16.03605],[-43.23288,-16.04064],[-43.16716,-16.00432],[-43.14556,-16.03062],[-43.13233,-16.06438],[-43.11085,-16.04753],[-43.10678,-16.0879],[-43.12984,-16.11311],[-43.11911,-16.1558],[-43.12283,-16.16653],[-43.0891,-16.16423],[-43.07533,-16.15411],[-43.09034,-16.13253],[-43.04441,-16.03133],[-43.05031,-16.00515],[-43.04997,-15.96718],[-43.02099,-15.98991],[-42.98746,-15.97187],[-42.98278,-15.92308],[-42.94326,-15.91194],[-42.91867,-15.96596],[-42.85477,-15.90516],[-42.83399,-15.85283],[-42.84216,-15.7759],[-42.85744,-15.72397],[-42.84892,-15.63301],[-42.82821,-15.60565],[-42.81525,-15.50372],[-42.77843,-15.33923],[-42.84008,-15.2792],[-42.86195,-15.24986],[-42.80375,-15.15265],[-42.75628,-15.04001],[-42.73261,-14.96576],[-42.6503,-14.91381],[-42.61275,-14.80656],[-42.60143,-14.76626],[-42.6119,-14.60916],[-42.60355,-14.48146],[-42.63133,-14.4773],[-42.6346,-14.41705],[-42.64602,-14.4002],[-42.64514,-14.3749],[-42.65776,-14.37152],[-42.63315,-14.35504],[-42.65705,-14.31846],[-42.64993,-14.30146],[-42.61348,-14.32082],[-42.62036,-14.35526],[-42.60834,-14.34083],[-42.59303,-14.29272],[-42.5985,-14.28412],[-42.61555,-14.29179],[-42.62911,-14.25419],[-42.65696,-14.24749],[-42.66361,-14.22229],[-42.65079,-14.21879],[-42.66291,-14.18811],[-42.64459,-14.15838],[-42.67739,-14.15617],[-42.68509,-14.13466],[-42.6987,-14.12672],[-42.68425,-14.05617],[-42.69762,-14.05823],[-42.67909,-14.02219],[-42.7298,-13.96212],[-42.72901,-13.9355],[-42.70885,-13.92638],[-42.72683,-13.87682],[-42.76981,-13.88447],[-42.79408,-13.86589],[-42.80387,-13.84594],[-42.81395,-13.78672],[-42.83488,-13.74595],[-42.82834,-13.72153],[-42.84472,-13.69544],[-42.83381,-13.65177],[-42.86622,-13.59705],[-42.88936,-13.60493],[-42.90634,-13.55647],[-42.93044,-13.46302],[-42.94674,-13.43773],[-42.98765,-13.3875],[-43.01058,-13.31088],[-42.98533,-13.3084],[-42.98095,-13.29053],[-42.92225,-13.35735],[-42.91717,-13.33136],[-42.90493,-13.31865],[-42.92104,-13.23716],[-42.9108,-13.21159],[-42.94228,-13.13766],[-42.92249,-13.14359],[-42.96731,-13.0514],[-43.00195,-13.02007],[-43.00687,-13.00573],[-42.99305,-12.99904],[-42.99783,-12.84815],[-42.97998,-12.8754],[-42.93571,-13.005],[-42.89174,-13.17539],[-42.87549,-13.18865],[-42.89521,-13.21932],[-42.87799,-13.23425],[-42.87707,-13.29178],[-42.86035,-13.34827],[-42.85397,-13.31016],[-42.84428,-13.22276],[-42.82922,-13.26698],[-42.81671,-13.25807],[-42.84243,-13.16465],[-42.82558,-13.13974],[-42.86119,-13.12172],[-42.83815,-13.10321],[-42.88705,-13.02854],[-42.92348,-12.96919],[-42.91813,-12.93184],[-42.88273,-12.89585],[-42.88897,-12.86412],[-42.90365,-12.85478],[-42.89683,-12.8178],[-42.89652,-12.77154],[-42.90779,-12.7231],[-42.91675,-12.64658],[-42.9375,-12.61693],[-42.92567,-12.59066],[-42.95993,-12.52575],[-42.9373,-12.50066],[-42.90249,-12.54615],[-42.84674,-12.76605],[-42.84437,-12.8209],[-42.82874,-12.82476],[-42.81361,-12.89937],[-42.78239,-12.89978],[-42.74394,-12.95418],[-42.71546,-12.91686],[-42.71575,-12.99594],[-42.72545,-12.99657],[-42.71454,-13.10393],[-42.70618,-13.21642],[-42.71307,-13.30004],[-42.67952,-13.34495],[-42.69372,-13.39994],[-42.70895,-13.41054],[-42.66939,-13.43782],[-42.64177,-13.41543],[-42.63388,-13.38018],[-42.61343,-13.40121],[-42.57855,-13.40124],[-42.57409,-13.51709],[-42.56943,-13.5711],[-42.51398,-13.70585],[-42.49277,-13.70134],[-42.44528,-13.68656],[-42.42864,-13.7573],[-42.39386,-13.76059],[-42.39873,-13.67016],[-42.40859,-13.62826],[-42.39712,-13.60165],[-42.39357,-13.5787],[-42.38017,-13.59326],[-42.37863,-13.54485],[-42.33779,-13.55461],[-42.34395,-13.58633],[-42.32457,-13.60163],[-42.31478,-13.56509],[-42.28275,-13.56808],[-42.27668,-13.60205],[-42.24427,-13.61724],[-42.2256,-13.64666],[-42.14914,-13.68292],[-42.15793,-13.70168],[-42.19288,-13.70673],[-42.20719,-13.72728],[-42.25097,-13.68806],[-42.25604,-13.66661],[-42.29324,-13.68127],[-42.30445,-13.66442],[-42.31561,-13.69447],[-42.29707,-13.6993],[-42.30124,-13.71521],[-42.32545,-13.7098],[-42.33096,-13.7598],[-42.29988,-13.77494],[-42.30535,-13.79662],[-42.33204,-13.80364],[-42.30171,-13.8242],[-42.32565,-13.83206],[-42.31148,-13.85428],[-42.29139,-13.85068],[-42.2888,-13.86912],[-42.27562,-13.87364],[-42.30062,-13.90936],[-42.32322,-13.95789],[-42.35658,-13.99276],[-42.38628,-14.03868],[-42.39447,-14.01235],[-42.41774,-14.03312],[-42.51074,-14.0155],[-42.51005,-14.06861],[-42.49258,-14.09279],[-42.46824,-14.09813],[-42.47228,-14.14175],[-42.49079,-14.20209],[-42.53737,-14.31622],[-42.53228,-14.35403],[-42.55591,-14.38394],[-42.54158,-14.39484],[-42.52388,-14.39591],[-42.51238,-14.43804],[-42.53938,-14.48968],[-42.53308,-14.6041],[-42.53713,-14.63008],[-42.51988,-14.64282],[-42.54906,-14.69169],[-42.53249,-14.70028],[-42.54558,-14.731],[-42.56855,-14.74983],[-42.5433,-14.75119],[-42.55995,-14.78314],[-42.51122,-14.82435],[-42.56594,-14.88505],[-42.61583,-14.99556],[-42.64477,-14.98788],[-42.64271,-15.00819],[-42.59989,-15.01634],[-42.59067,-15.06257],[-42.56605,-15.04844],[-42.55031,-15.00613],[-42.53643,-14.99915],[-42.52145,-14.98559],[-42.49102,-14.98337],[-42.43207,-15.00383],[-42.42349,-15.04563],[-42.43355,-15.04424],[-42.41958,-15.05808],[-42.37486,-15.06156],[-42.3641,-15.05526],[-42.34738,-15.073],[-42.3383,-15.0519],[-42.30671,-15.08209],[-42.29909,-15.06091],[-42.28563,-15.08303],[-42.27007,-15.10677],[-42.24031,-15.10029],[-42.17651,-15.11139],[-42.14804,-15.09966],[-42.1278,-15.15437],[-42.12265,-15.14331],[-42.08789,-15.17037],[-42.07645,-15.15113],[-42.02175,-15.16757],[-41.96913,-15.14236],[-41.93501,-15.12565],[-41.94454,-15.1084],[-41.91208,-15.10862],[-41.91567,-15.09188],[-41.87911,-15.099],[-41.85141,-15.09206],[-41.86114,-15.07669],[-41.8758,-15.07487],[-41.87553,-15.05536],[-41.82277,-14.99306],[-41.81047,-15.00427],[-41.82557,-15.02304],[-41.81268,-15.03717],[-41.83534,-15.04654],[-41.82467,-15.06483],[-41.8316,-15.09002],[-41.80763,-15.0696],[-41.81292,-15.0616],[-41.77236,-15.06336],[-41.79526,-15.08047],[-41.77034,-15.08393],[-41.74749,-15.03611],[-41.68753,-15.07274],[-41.60865,-15.01738],[-41.57932,-15.01578],[-41.51554,-15.06801],[-41.4665,-15.07081],[-41.43052,-15.11158],[-41.4359,-15.13119],[-41.40801,-15.14098],[-41.39107,-15.13477],[-41.38125,-15.11247],[-41.36088,-15.12208],[-41.32095,-15.10727],[-41.2925,-15.0589],[-41.30627,-15.02661],[-41.23579,-15.01229],[-41.19929,-14.98835],[-41.16307,-14.97247],[-41.15363,-14.99593],[-41.11357,-14.98559],[-41.10103,-14.97704],[-41.09401,-14.98796],[-41.04117,-14.98009],[-41.03292,-14.95386],[-40.97901,-14.95606],[-40.98729,-14.93512],[-40.99974,-14.93484],[-40.98892,-14.89408],[-41.00629,-14.87481],[-40.98797,-14.83128],[-41.01523,-14.80646],[-40.96946,-14.78365],[-40.95874,-14.80762],[-40.9651,-14.81525],[-40.91326,-14.83302],[-40.92144,-14.80825],[-40.88455,-14.79938],[-40.87722,-14.7443],[-40.83515,-14.68802],[-40.88086,-14.64534],[-40.88935,-14.61471],[-40.90852,-14.61402],[-40.87409,-14.58347],[-40.84786,-14.59755],[-40.84291,-14.63022],[-40.80672,-14.69367],[-40.76852,-14.69948],[-40.72596,-14.67971],[-40.67581,-14.6993],[-40.61611,-14.67141],[-40.58762,-14.66432],[-40.56701,-14.65297],[-40.53924,-14.65165],[-40.51804,-14.66659],[-40.46962,-14.65368],[-40.44727,-14.61677],[-40.41624,-14.60062],[-40.37052,-14.60776],[-40.28547,-14.48728],[-40.23776,-14.49037],[-40.21699,-14.41908],[-40.22827,-14.38325],[-40.2301,-14.34216],[-40.21214,-14.28044],[-40.20313,-14.24039],[-40.18132,-14.16701],[-40.14173,-14.10172],[-40.09382,-14.08894],[-40.02501,-13.93742],[-40.02378,-13.86724],[-40.02252,-13.85063],[-40.05315,-13.8365],[-40.04308,-13.81241],[-40.06151,-13.81577],[-40.05261,-13.76301],[-40.08095,-13.75108],[-40.05463,-13.67477],[-40.09599,-13.68646],[-40.09635,-13.61978],[-40.11339,-13.62301],[-40.12199,-13.69016],[-40.13521,-13.70414],[-40.11825,-13.73805],[-40.13684,-13.75728],[-40.17138,-13.74579],[-40.23274,-13.74356],[-40.24469,-13.72576],[-40.29786,-13.72711],[-40.33962,-13.69796],[-40.33115,-13.68265],[-40.37712,-13.65709],[-40.41896,-13.64596],[-40.41958,-13.6033],[-40.45662,-13.5882],[-40.46697,-13.55259],[-40.49014,-13.53936],[-40.47582,-13.4802],[-40.47684,-13.46791],[-40.52296,-13.43749],[-40.5247,-13.47094],[-40.55352,-13.48445],[-40.56322,-13.41648],[-40.55376,-13.40316],[-40.56337,-13.38437],[-40.54149,-13.34779],[-40.50951,-13.33411],[-40.49335,-13.33276],[-40.46892,-13.33346],[-40.45692,-13.30446],[-40.42202,-13.3136],[-40.41459,-13.33254],[-40.3778,-13.32068],[-40.37458,-13.30939],[-40.35334,-13.30244],[-40.2821,-13.32201],[-40.24666,-13.29033],[-40.17083,-13.31617],[-40.15838,-13.28949],[-40.16075,-13.2614],[-40.11536,-13.26842],[-40.10233,-13.21438],[-40.10359,-13.19187],[-40.05222,-13.18085],[-40.06038,-13.15208],[-40.06313,-13.07311],[-40.00402,-13.05688],[-39.92404,-13.06003],[-39.90429,-13.05504],[-39.88149,-13.02892],[-39.86317,-13.05085],[-39.83918,-13.02784],[-39.8494,-13.0009],[-39.74984,-12.98744],[-39.75244,-12.9736],[-39.75794,-12.95221],[-39.73593,-12.95053],[-39.70365,-12.95911],[-39.66474,-12.87162],[-39.68886,-12.84605],[-39.67345,-12.83512],[-39.59079,-12.85562],[-39.55972,-12.81734],[-39.53915,-12.79023],[-39.5132,-12.77674],[-39.51517,-12.71917],[-39.53138,-12.69447],[-39.52906,-12.67649],[-39.56979,-12.64108],[-39.53118,-12.59494],[-39.43131,-12.61438],[-39.41463,-12.59761],[-39.40339,-12.57122],[-39.37254,-12.56041],[-39.3998,-12.54445],[-39.4176,-12.54228],[-39.36213,-12.52358],[-39.32628,-12.49681],[-39.27065,-12.49529],[-39.2445,-12.50574],[-39.19069,-12.43328],[-39.21573,-12.43943],[-39.23572,-12.41274],[-39.23198,-12.39717],[-39.28167,-12.34881],[-39.29621,-12.30235],[-39.31252,-12.29445],[-39.30413,-12.27463],[-39.35499,-12.21364],[-39.34117,-12.19854],[-39.36202,-12.19503],[-39.36296,-12.16901],[-39.39958,-12.16633],[-39.37987,-12.15067],[-39.37163,-12.11181],[-39.30999,-12.08081],[-39.32978,-12.0725],[-39.38203,-12.06877],[-39.48473,-12.00174],[-39.48641,-11.9231],[-39.46851,-11.91667],[-39.43429,-11.9593],[-39.41002,-11.93616],[-39.38217,-11.96505],[-39.33062,-11.96295],[-39.318,-11.97981],[-39.22879,-11.95657],[-39.20444,-11.96949],[-39.14937,-11.976],[-39.11954,-11.97917],[-39.09088,-11.96082],[-39.07629,-11.86681],[-39.05684,-11.90066],[-39.04732,-11.94642],[-38.99547,-11.97676],[-38.99536,-12.00474],[-39.02194,-12.06582],[-39.02502,-12.11272],[-39.03836,-12.16162],[-39.01147,-12.19795],[-38.95898,-12.27687],[-38.96756,-12.34069],[-38.98263,-12.34895],[-38.95631,-12.39486],[-38.97457,-12.41207],[-38.99634,-12.45288],[-38.93821,-12.45076],[-38.89115,-12.41422],[-38.86726,-12.39404],[-38.82901,-12.39702],[-38.81842,-12.35596],[-38.84845,-12.32665],[-38.866,-12.2816],[-38.83766,-12.26699],[-38.84059,-12.23105],[-38.85218,-12.2073],[-38.80228,-12.16592],[-38.79705,-12.12621],[-38.80468,-12.11021],[-38.79078,-12.0748],[-38.80225,-12.03516],[-38.79805,-11.93699],[-38.80697,-11.89547],[-38.82615,-11.85172],[-38.84724,-11.84681],[-38.85863,-11.81149],[-38.82659,-11.84124],[-38.80095,-11.83051],[-38.7971,-11.80204],[-38.74458,-11.7534],[-38.71992,-11.71433],[-38.64466,-11.70441],[-38.60018,-11.7257],[-38.55623,-11.7643],[-38.52426,-11.78109],[-38.49523,-11.81771],[-38.43549,-11.8333],[-38.39533,-11.79772],[-38.34439,-11.80734],[-38.31634,-11.8724],[-38.31324,-11.84779],[-38.33506,-11.78762],[-38.29188,-11.79205],[-38.27279,-11.76113],[-38.25402,-11.74837],[-38.26941,-11.73653],[-38.15344,-11.6737],[-38.1283,-11.65189],[-38.0961,-11.67608],[-38.07378,-11.631],[-38.03771,-11.63972],[-38.0371,-11.65625],[-37.97816,-11.65155],[-37.96496,-11.60245],[-37.93548,-11.59567],[-37.93214,-11.56225],[-37.97322,-11.55702],[-37.97756,-11.54571],[-38.00198,-11.55885],[-37.99312,-11.48325],[-38.00729,-11.50323],[-38.01765,-11.52122],[-38.02825,-11.47691],[-38.04989,-11.46126],[-38.04756,-11.42105],[-38.06571,-11.41334],[-38.08496,-11.37873],[-38.10558,-11.39045],[-38.10088,-11.35469],[-38.15956,-11.30245],[-38.12038,-11.25739],[-38.13025,-11.21455],[-38.13459,-11.19768],[-38.14255,-11.17071],[-38.11427,-11.14334],[-38.08697,-11.20948],[-38.05935,-11.23004],[-38.06358,-11.27562],[-38.04719,-11.29806],[-38.06494,-11.3102],[-38.03708,-11.3377],[-38.05009,-11.34587],[-38.05705,-11.35549],[-38.00969,-11.37115],[-38.01363,-11.39363],[-38.02153,-11.41053],[-37.98974,-11.4181],[-37.97799,-11.45229],[-37.92915,-11.45465],[-37.90447,-11.47518],[-37.86343,-11.45215],[-37.83597,-11.44535],[-37.82466,-11.38082],[-37.80816,-11.38555],[-37.79464,-11.39126],[-37.76323,-11.35842],[-37.72342,-11.27487],[-37.70576,-11.26859],[-37.75016,-11.19263],[-37.75048,-11.1103],[-37.7625,-11.09234],[-37.72383,-11.06853],[-37.7423,-11.02814],[-37.72418,-11.01013],[-37.63471,-11.0441],[-37.62806,-11.01955],[-37.5747,-11.0097],[-37.58084,-10.9489],[-37.57511,-10.88566],[-37.56171,-10.87415],[-37.53536,-10.8897],[-37.53125,-10.84518],[-37.58999,-10.80032],[-37.61892,-10.72931],[-37.60208,-10.69733],[-37.56381,-10.69298],[-37.5646,-10.74703],[-37.53368,-10.7947],[-37.51546,-10.78352],[-37.51017,-10.76164],[-37.47505,-10.76784],[-37.44916,-10.8152],[-37.43429,-10.79471],[-37.4153,-10.77493],[-37.36552,-10.71275],[-37.33957,-10.6887],[-37.33727,-10.62034],[-37.30279,-10.58512],[-37.37308,-10.5548],[-37.40427,-10.55595],[-37.43196,-10.51982],[-37.42256,-10.50165],[-37.43761,-10.49296],[-37.3933,-10.47706],[-37.40335,-10.46639],[-37.44689,-10.48308],[-37.48036,-10.4681],[-37.44307,-10.4452],[-37.37214,-10.38276],[-37.26039,-10.35452],[-37.20795,-10.29541],[-37.18871,-10.28031],[-37.20333,-10.26381],[-37.22164,-10.26409],[-37.20541,-10.21849],[-37.15658,-10.11661],[-37.12586,-10.09863],[-37.07738,-10.15785],[-37.12592,-10.22047],[-37.11222,-10.26889],[-37.08663,-10.27245],[-37.07572,-10.2908],[-37.0611,-10.28672],[-37.03208,-10.28316],[-36.98478,-10.25152],[-36.98295,-10.28699],[-37.00207,-10.29681],[-36.98423,-10.34077],[-36.95209,-10.35221],[-36.96487,-10.38276],[-36.92981,-10.37641],[-36.91873,-10.36482],[-36.92346,-10.31673],[-36.90974,-10.30119],[-36.88028,-10.27869],[-36.90587,-10.25163],[-36.89774,-10.18941],[-36.89238,-10.16711],[-36.86918,-10.15183],[-36.85712,-10.13936],[-36.8022,-10.14359],[-36.78897,-10.17251],[-36.76869,-10.15618],[-36.71561,-10.14812],[-36.73175,-10.14091],[-36.75663,-10.14937],[-36.75109,-10.13008],[-36.71492,-10.10974],[-36.70445,-10.14769],[-36.68398,-10.13705],[-36.6248,-10.17915],[-36.55342,-10.12688],[-36.56187,-10.11671],[-36.53291,-10.07764],[-36.54977,-10.06798],[-36.59521,-10.09735],[-36.5761,-10.04423],[-36.59407,-10.05116],[-36.58843,-10.03063],[-36.55699,-10.02533],[-36.53536,-10.04662],[-36.52563,-10.03167],[-36.53234,-10.0073],[-36.52213,-9.97564],[-36.551,-9.97197],[-36.56596,-9.99182],[-36.59102,-9.98395],[-36.61561,-9.95072],[-36.60027,-9.93106],[-36.62551,-9.90738],[-36.5974,-9.89978],[-36.58573,-9.90173],[-36.6029,-9.87678],[-36.6279,-9.88651],[-36.62356,-9.87109],[-36.6481,-9.8466],[-36.60303,-9.85244],[-36.60664,-9.83247],[-36.62586,-9.83135],[-36.6524,-9.76567],[-36.62729,-9.74926],[-36.50859,-9.75404],[-36.47645,-9.71661],[-36.47089,-9.65719],[-36.48535,-9.64988],[-36.47935,-9.61992],[-36.49569,-9.59975],[-36.46313,-9.49525],[-36.45834,-9.47764],[-36.5238,-9.45425],[-36.516,-9.43687],[-36.55748,-9.42479],[-36.57068,-9.40043],[-36.63293,-9.40312],[-36.65083,-9.40482],[-36.71259,-9.33586],[-36.71406,-9.2852],[-36.72488,-9.24681],[-36.7404,-9.27581],[-36.75501,-9.30662],[-36.76708,-9.29506],[-36.77179,-9.27312],[-36.80798,-9.26777],[-36.79352,-9.2555],[-36.77124,-9.24136],[-36.76359,-9.1756],[-36.75724,-9.16799],[-36.75604,-9.20657],[-36.72853,-9.20213],[-36.70936,-9.22831],[-36.67885,-9.21407],[-36.6707,-9.16819],[-36.64559,-9.13365],[-36.67748,-9.08591],[-36.6917,-9.02243],[-36.6565,-8.99924],[-36.59738,-9.03459],[-36.55142,-9.01436],[-36.44918,-8.99938],[-36.42237,-8.94834],[-36.39572,-8.95675],[-36.40333,-8.90068],[-36.32334,-8.86369],[-36.29959,-8.8796],[-36.2939,-8.91635],[-36.21446,-8.88778],[-36.2339,-8.84941],[-36.24718,-8.83998],[-36.20923,-8.78242],[-36.18241,-8.77692],[-36.17653,-8.7585],[-36.13817,-8.7433],[-36.11481,-8.70483],[-36.07896,-8.71028],[-36.03706,-8.66938],[-36.02019,-8.7065],[-35.99426,-8.68734],[-35.95323,-8.69811],[-35.92492,-8.63825],[-35.92467,-8.69212],[-35.89962,-8.67284],[-35.89832,-8.68658],[-35.88267,-8.6711],[-35.90167,-8.60624],[-35.84249,-8.58982],[-35.8036,-8.60941],[-35.78927,-8.58478],[-35.76938,-8.60172],[-35.71378,-8.58737],[-35.78438,-8.5661],[-35.71924,-8.45364],[-35.73628,-8.44656],[-35.80316,-8.48997],[-35.83805,-8.48085],[-35.83769,-8.46668],[-35.77858,-8.40991],[-35.80903,-8.39057],[-35.85204,-8.40465],[-35.90799,-8.40551],[-35.89444,-8.37979],[-35.97035,-8.38465],[-36.00569,-8.40268],[-36.06591,-8.41169],[-36.08706,-8.42118],[-36.08409,-8.37996],[-36.04731,-8.35337],[-36.01105,-8.34857],[-35.93835,-8.34062],[-35.91543,-8.30993],[-35.87268,-8.29905],[-35.90871,-8.36422],[-35.88838,-8.36021],[-35.87605,-8.33629],[-35.828,-8.31687],[-35.84381,-8.3476],[-35.82796,-8.36072],[-35.84372,-8.38465],[-35.80925,-8.37213],[-35.77264,-8.31843],[-35.8159,-8.32088],[-35.79908,-8.28168],[-35.74615,-8.27024],[-35.73218,-8.24155],[-35.6895,-8.23519],[-35.6634,-8.22546],[-35.63137,-8.23619],[-35.66233,-8.27318],[-35.65224,-8.2836],[-35.59375,-8.23858],[-35.55175,-8.24141],[-35.50041,-8.20285],[-35.53441,-8.18801],[-35.50867,-8.16149],[-35.48036,-8.06617],[-35.5,-8.06874],[-35.48396,-8.0127],[-35.44071,-7.95406],[-35.46422,-7.96327],[-35.47994,-7.94358],[-35.49964,-7.95533],[-35.49961,-7.91956],[-35.47477,-7.89515],[-35.50166,-7.87857],[-35.54111,-7.88645],[-35.50612,-7.83064],[-35.51614,-7.80681],[-35.5479,-7.82406],[-35.54505,-7.78635],[-35.60867,-7.78514],[-35.62981,-7.7802],[-35.64439,-7.75417],[-35.67292,-7.75129],[-35.67683,-7.72863],[-35.69338,-7.72301],[-35.63106,-7.66859],[-35.64109,-7.65795],[-35.66487,-7.6641],[-35.63418,-7.63579],[-35.59927,-7.63658],[-35.58079,-7.58055],[-35.544,-7.56271],[-35.51786,-7.5191],[-35.52269,-7.48214],[-35.505,-7.47761],[-35.51914,-7.46135],[-35.51517,-7.44175],[-35.48057,-7.42995],[-35.45522,-7.40491],[-35.42492,-7.42938],[-35.42023,-7.46064],[-35.40194,-7.40128],[-35.36206,-7.39727],[-35.2971,-7.38565],[-35.29212,-7.34162],[-35.2695,-7.34638],[-35.23042,-7.3001],[-35.21621,-7.29139],[-35.23008,-7.26472],[-35.19921,-7.24816],[-35.20751,-7.22163],[-35.19076,-7.21419],[-35.18743,-7.19591],[-35.16401,-7.21083],[-35.1354,-7.17282],[-35.13703,-7.14685],[-35.09663,-7.13792],[-35.1052,-7.11418],[-35.13142,-7.09981],[-35.12373,-7.06101],[-35.18028,-7.09699],[-35.1953,-7.1139],[-35.20239,-7.09009],[-35.18933,-7.07958],[-35.22412,-7.04703],[-35.22699,-7.03215],[-35.25172,-7.02823],[-35.24224,-7.00482],[-35.25944,-6.99892],[-35.25142,-6.98935],[-35.21489,-6.98791],[-35.21603,-6.97508],[-35.23741,-6.97422],[-35.23618,-6.95684],[-35.20928,-6.94755],[-35.22614,-6.90623],[-35.22628,-6.87027],[-35.18352,-6.85716],[-35.1199,-6.86622],[-35.07258,-6.85241],[-35.08049,-6.83804],[-35.10169,-6.8369],[-35.07457,-6.82205],[-35.11758,-6.80454],[-35.13766,-6.81554],[-35.12062,-6.83864],[-35.13969,-6.84613],[-35.15453,-6.82527],[-35.18429,-6.79845],[-35.18828,-6.77953],[-35.21282,-6.78272],[-35.20351,-6.75705],[-35.21372,-6.69476],[-35.21429,-6.68427],[-35.17457,-6.65862],[-35.20999,-6.66548],[-35.23193,-6.63881],[-35.26916,-6.628],[-35.24538,-6.58538],[-35.23231,-6.55358],[-35.23174,-6.51974],[-35.21856,-6.50237],[-35.21334,-6.47491],[-35.18037,-6.47223],[-35.17634,-6.44165],[-35.20068,-6.41926],[-35.20122,-6.40442],[-35.21453,-6.42659],[-35.25185,-6.41752],[-35.27137,-6.41988],[-35.32859,-6.38621],[-35.29218,-6.34499],[-35.27484,-6.34228],[-35.28419,-6.29261],[-35.31352,-6.26175],[-35.3327,-6.273],[-35.33411,-6.24903],[-35.32972,-6.24115],[-35.34639,-6.21902],[-35.33591,-6.1795],[-35.35624,-6.17156],[-35.33025,-6.11641],[-35.28794,-6.09765],[-35.19586,-6.12109],[-35.20957,-6.06997],[-35.21494,-6.04343],[-35.22065,-6.03366],[-35.17614,-5.99609],[-35.18198,-5.96618],[-35.17085,-5.96468],[-35.19399,-5.93156],[-35.24333,-5.86393],[-35.28042,-5.82361],[-35.2769,-5.79272],[-35.2554,-5.78142],[-35.22566,-5.73988],[-35.24673,-5.72186],[-35.28328,-5.72115],[-35.29419,-5.69464],[-35.25572,-5.70478],[-35.26926,-5.66825],[-35.2535,-5.67664],[-35.25912,-5.63584],[-35.2931,-5.60568],[-35.27305,-5.60031],[-35.27098,-5.56703],[-35.293,-5.56235],[-35.2919,-5.54495],[-35.32513,-5.51314],[-35.29094,-5.49114],[-35.34481,-5.45272],[-35.35996,-5.40827],[-35.39381,-5.37827],[-35.38499,-5.36322],[-35.44681,-5.31075],[-35.4804,-5.266],[-35.49652,-5.21549],[-35.48021,-5.18743],[-35.54589,-5.14023],[-35.62091,-5.11845],[-35.81822,-5.07362],[-35.98086,-5.04175],[-36.0996,-5.07662],[-36.18474,-5.09559],[-36.29735,-5.09505],[-36.31789,-5.0957],[-36.44982,-5.06611],[-36.45834,-5.06914],[-36.53354,-5.071],[-36.56208,-5.08597],[-36.61546,-5.08328],[-36.61909,-5.09415],[-36.69801,-5.07997],[-36.73925,-5.05678],[-36.77143,-5.04852],[-36.78183,-5.04533],[-36.87775,-4.95392],[-36.9538,-4.92439],[-37.0231,-4.94343],[-37.06041,-4.94448],[-37.11552,-4.92566],[-37.1671,-4.93342],[-37.24711,-4.84174],[-37.30311,-4.722],[-37.36155,-4.68605],[-37.48875,-4.63528],[-37.50853,-4.62898],[-37.55496,-4.64234],[-37.66163,-4.56308],[-37.74096,-4.47136],[-37.77377,-4.40124],[-37.86558,-4.37074],[-38.12715,-4.13309],[-38.27625,-3.94263],[-38.34527,-3.9016],[-38.46373,-3.7117],[-38.47468,-3.70935],[-38.4957,-3.72452],[-38.63388,-3.68575],[-38.77827,-3.5869],[-38.81796,-3.54569],[-38.86747,-3.52823],[-38.92254,-3.48666],[-38.98371,-3.404],[-39.02484,-3.40349],[-39.06188,-3.40692],[-39.12594,-3.34369],[-39.17132,-3.31817],[-39.25748,-3.21887],[-39.33075,-3.19506],[-39.36685,-3.17409],[-39.40043,-3.17473],[-39.56897,-3.07546],[-39.60731,-3.05112],[-39.64217,-3.01947],[-39.66448,-3.01835],[-39.69383,-2.99824],[-39.73759,-2.9894],[-39.74438,-2.98063],[-39.92339,-2.86951],[-40.02588,-2.83887],[-40.13363,-2.82458],[-40.14862,-2.8386],[-40.19688,-2.81157],[-40.45653,-2.8032],[-40.51239,-2.78884],[-40.55415,-2.82722],[-40.65399,-2.84958],[-40.77934,-2.85808],[-40.84122,-2.88191],[-40.87719,-2.86144],[-41.07648,-2.89606],[-41.27571,-2.89339],[-41.30685,-2.92019],[-41.32456,-2.93677],[-41.40718,-2.90614],[-41.49394,-2.9007],[-41.53493,-2.90943],[-41.5713,-2.90313],[-41.64,-2.87947],[-41.7308,-2.80665]]]}]}}]}