{"type":"FeatureCollection","name":"quilombolas","crs":{"type":"name","properties":{"name":"urn:ogc:def:crs:OGC:1.3:CRS84"}},"features":[{"type":"Feature","properties":{"name_quilombo":"Barra E Bananal"},"geometry":{"type":"Polygon","coordinates":[[[-41.82197,-13.51903],[-41.82799,-13.52186],[-41.83516,-13.50329],[-41.84486,-13.50762],[-41.8547,-13.48955],[-41.86155,-13.48628],[-41.86631,-13.49423],[-41.85973,-13.4893],[-41.85343,-13.50239],[-41.85298,-13.51166],[-41.84616,-13.51492],[-41.84615,-13.52195],[-41.85242,-13.52594],[-41.87297,-13.49625],[-41.87078,-13.49402],[-41.87745,-13.46275],[-41.86904,-13.46544],[-41.86018,-13.47851],[-41.85251,-13.4811],[-41.8511,-13.48566],[-41.83569,-13.49596],[-41.82197,-13.51903]]]}},{"type":"Feature","properties":{"name_quilombo":"Olhos Dagua do Basílio"},"geometry":{"type":"Polygon","coordinates":[[[-41.90865,-12.59157],[-41.89829,-12.61783],[-41.90314,-12.62688],[-41.91012,-12.62929],[-41.90717,-12.65147],[-41.93095,-12.66441],[-41.97716,-12.60209],[-41.97475,-12.58709],[-41.9429,-12.58027],[-41.90865,-12.59157]]]}},{"type":"Feature","properties":{"name_quilombo":"Capao das Gamelas"},"geometry":{"type":"Polygon","coordinates":[[[-41.86177,-12.54693],[-41.84453,-12.57052],[-41.83698,-12.56894],[-41.83765,-12.57177],[-41.83059,-12.5768],[-41.83206,-12.58464],[-41.83727,-12.58512],[-41.83662,-12.58956],[-41.85595,-12.58838],[-41.86416,-12.58397],[-41.87321,-12.58728],[-41.88193,-12.57018],[-41.86519,-12.56053],[-41.86177,-12.54693]]]}},{"type":"Feature","properties":{"name_quilombo":"Iúna"},"geometry":{"type":"Polygon","coordinates":[[[-41.30662,-12.5481],[-41.31151,-12.55183],[-41.31197,-12.55633],[-41.32433,-12.55238],[-41.33464,-12.56003],[-41.34222,-12.55882],[-41.33908,-12.54889],[-41.33079,-12.54578],[-41.31976,-12.53317],[-41.32323,-12.52479],[-41.2954,-12.52143],[-41.28402,-12.55449],[-41.30662,-12.5481]]]}},{"type":"Feature","properties":{"name_quilombo":"Catuabo"},"geometry":{"type":"Polygon","coordinates":[[[-37.56332,-10.4304],[-37.56083,-10.41917],[-37.54601,-10.42785],[-37.53575,-10.44997],[-37.54863,-10.4688],[-37.55573,-10.46621],[-37.5538,-10.46203],[-37.55672,-10.46078],[-37.55279,-10.45486],[-37.56332,-10.4304]]]}},{"type":"Feature","properties":{"name_quilombo":"Caraíba E Adjacências"},"geometry":{"type":"Polygon","coordinates":[[[-36.96266,-10.20943],[-36.96381,-10.20235],[-36.9584,-10.17977],[-36.95463,-10.18305],[-36.93656,-10.17805],[-36.9281,-10.18098],[-36.92985,-10.19236],[-36.93499,-10.19695],[-36.91801,-10.22245],[-36.92373,-10.23598],[-36.92213,-10.24115],[-36.93104,-10.24197],[-36.94212,-10.23328],[-36.94314,-10.23908],[-36.94034,-10.24342],[-36.96274,-10.24551],[-36.97188,-10.24251],[-36.97479,-10.23619],[-36.96879,-10.21122],[-36.96266,-10.20943]]]}},{"type":"Feature","properties":{"name_quilombo":"Agreste"},"geometry":{"type":"Polygon","coordinates":[[[-41.90256,-12.50974],[-41.87058,-12.50949],[-41.85596,-12.54127],[-41.86177,-12.54693],[-41.86519,-12.56053],[-41.88193,-12.57018],[-41.90945,-12.51627],[-41.903,-12.51657],[-41.90256,-12.50974]]]}},{"type":"Feature","properties":{"name_quilombo":"Morro Redondo"},"geometry":{"type":"Polygon","coordinates":[[[-41.97423,-12.5485],[-41.97898,-12.55082],[-41.97777,-12.55884],[-41.98728,-12.55399],[-42.01379,-12.55657],[-42.03015,-12.55359],[-42.03912,-12.53039],[-42.04422,-12.52895],[-42.05022,-12.51541],[-42.03844,-12.50098],[-42.03365,-12.49978],[-42.02057,-12.48616],[-41.99378,-12.48181],[-41.98406,-12.49197],[-41.98332,-12.50715],[-41.97763,-12.50791],[-41.97306,-12.51591],[-41.97532,-12.51883],[-41.97423,-12.5485]]]}},{"type":"Feature","properties":{"name_quilombo":"Tijuaçu"},"geometry":{"type":"Polygon","coordinates":[[[-40.10659,-10.58248],[-40.10483,-10.57896],[-40.09635,-10.57629],[-40.08869,-10.58101],[-40.07667,-10.56467],[-40.06725,-10.57589],[-40.07079,-10.60544],[-40.0788,-10.60289],[-40.08848,-10.62149],[-40.08436,-10.63562],[-40.08009,-10.6325],[-40.07833,-10.64689],[-40.06402,-10.64385],[-40.06434,-10.65052],[-40.07476,-10.65178],[-40.07544,-10.65886],[-40.07842,-10.65694],[-40.08407,-10.66043],[-40.08436,-10.65568],[-40.097,-10.66493],[-40.10309,-10.66268],[-40.10607,-10.67235],[-40.10629,-10.66344],[-40.11349,-10.65353],[-40.12025,-10.65753],[-40.126,-10.65678],[-40.12551,-10.65474],[-40.13636,-10.65159],[-40.13657,-10.64742],[-40.14615,-10.64982],[-40.14742,-10.65458],[-40.15631,-10.64968],[-40.15928,-10.65329],[-40.1724,-10.64793],[-40.17011,-10.64024],[-40.18879,-10.64598],[-40.19137,-10.64354],[-40.19298,-10.64088],[-40.18994,-10.63453],[-40.18246,-10.63694],[-40.18672,-10.61725],[-40.18154,-10.61795],[-40.18241,-10.61083],[-40.17942,-10.60792],[-40.17603,-10.60996],[-40.16904,-10.60627],[-40.15863,-10.60807],[-40.15726,-10.60187],[-40.15248,-10.60503],[-40.15039,-10.60232],[-40.14691,-10.60418],[-40.1424,-10.59877],[-40.14398,-10.59216],[-40.13346,-10.58958],[-40.13432,-10.57967],[-40.12347,-10.58183],[-40.1106,-10.57995],[-40.10659,-10.58248]]]}},{"type":"Feature","properties":{"name_quilombo":"Jibóia"},"geometry":{"type":"Polygon","coordinates":[[[-40.22699,-10.6079],[-40.21991,-10.61205],[-40.2251,-10.62372],[-40.23066,-10.62882],[-40.2381,-10.62781],[-40.24636,-10.62184],[-40.24656,-10.61193],[-40.25631,-10.6084],[-40.25921,-10.59105],[-40.2685,-10.5816],[-40.26095,-10.58298],[-40.24771,-10.57877],[-40.24753,-10.57365],[-40.2328,-10.57271],[-40.22086,-10.58023],[-40.21327,-10.58097],[-40.21063,-10.58549],[-40.21422,-10.59041],[-40.22331,-10.59215],[-40.22349,-10.59913],[-40.22757,-10.59851],[-40.22699,-10.6079]]]}},{"type":"Feature","properties":{"name_quilombo":"Curral de Pedra"},"geometry":{"type":"Polygon","coordinates":[[[-39.28366,-8.84468],[-39.31058,-8.84291],[-39.26096,-8.76409],[-39.21154,-8.78844],[-39.22711,-8.82312],[-39.26022,-8.81148],[-39.25997,-8.83048],[-39.28366,-8.84468]]]}},{"type":"Feature","properties":{"name_quilombo":"Sumidouro"},"geometry":{"type":"Polygon","coordinates":[[[-41.41905,-8.64486],[-41.42093,-8.65017],[-41.41521,-8.65247],[-41.41127,-8.67404],[-41.41614,-8.67331],[-41.42077,-8.6785],[-41.42469,-8.67005],[-41.43802,-8.67446],[-41.44182,-8.67907],[-41.45141,-8.67092],[-41.44934,-8.65767],[-41.44508,-8.66154],[-41.44801,-8.66545],[-41.43627,-8.67248],[-41.43301,-8.64116],[-41.41905,-8.64486]]]}},{"type":"Feature","properties":{"name_quilombo":"Tq Águas do Velho Chico"},"geometry":{"type":"MultiPolygon","coordinates":[[[[-39.45714,-8.54631],[-39.47837,-8.58246],[-39.50191,-8.58292],[-39.51912,-8.58827],[-39.52442,-8.58559],[-39.53677,-8.54668],[-39.47081,-8.50956],[-39.45714,-8.54631]]],[[[-39.50175,-8.58733],[-39.50639,-8.58714],[-39.49965,-8.58457],[-39.50175,-8.58733]]]]}},{"type":"Feature","properties":{"name_quilombo":"Tq Cruz dos Riachos"},"geometry":{"type":"MultiPolygon","coordinates":[[[[-39.23833,-8.52121],[-39.22853,-8.52784],[-39.23036,-8.53243],[-39.22308,-8.53804],[-39.22647,-8.54721],[-39.2355,-8.54321],[-39.23189,-8.53868],[-39.23551,-8.54163],[-39.23872,-8.53634],[-39.24389,-8.53897],[-39.24807,-8.53689],[-39.23334,-8.52755],[-39.24168,-8.5283],[-39.24364,-8.53149],[-39.24993,-8.53121],[-39.25088,-8.52841],[-39.23833,-8.52121]]],[[[-39.25078,-8.54365],[-39.25105,-8.5435],[-39.24735,-8.53811],[-39.25078,-8.54365]]],[[[-39.2656,-8.56551],[-39.26833,-8.56842],[-39.25212,-8.54562],[-39.2656,-8.56551]]]]}},{"type":"Feature","properties":{"name_quilombo":"Tapuio"},"geometry":{"type":"Polygon","coordinates":[[[-41.35439,-8.5351],[-41.365,-8.53485],[-41.37273,-8.52985],[-41.36806,-8.52432],[-41.37496,-8.52042],[-41.37629,-8.51408],[-41.36351,-8.50398],[-41.36288,-8.49616],[-41.3486,-8.49568],[-41.35624,-8.49868],[-41.36054,-8.50907],[-41.36085,-8.51726],[-41.35502,-8.52417],[-41.35439,-8.5351]]]}},{"type":"Feature","properties":{"name_quilombo":"Tq Fazenda Santana"},"geometry":{"type":"Polygon","coordinates":[[[-39.50096,-8.27148],[-39.48053,-8.27897],[-39.47428,-8.27753],[-39.47779,-8.31765],[-39.48489,-8.31093],[-39.49955,-8.32807],[-39.50376,-8.32381],[-39.4907,-8.3085],[-39.50532,-8.30309],[-39.50916,-8.30047],[-39.50833,-8.29531],[-39.51575,-8.29182],[-39.51518,-8.28909],[-39.50761,-8.29087],[-39.5061,-8.27947],[-39.50232,-8.27878],[-39.50096,-8.27148]]]}},{"type":"Feature","properties":{"name_quilombo":"Lagoa dos Campinhos"},"geometry":{"type":"Polygon","coordinates":[[[-36.9228,-10.16503],[-36.92059,-10.16136],[-36.91458,-10.16131],[-36.91086,-10.15362],[-36.91979,-10.15968],[-36.9242,-10.1574],[-36.92497,-10.16212],[-36.93142,-10.16767],[-36.93746,-10.1564],[-36.93448,-10.15027],[-36.93221,-10.15159],[-36.92305,-10.14437],[-36.91815,-10.14917],[-36.90827,-10.13926],[-36.88917,-10.14822],[-36.88059,-10.14857],[-36.90213,-10.17606],[-36.90424,-10.16834],[-36.91149,-10.17346],[-36.91394,-10.1722],[-36.91269,-10.16725],[-36.91756,-10.16854],[-36.9228,-10.16503]]]}},{"type":"Feature","properties":{"name_quilombo":"Serra da Guia"},"geometry":{"type":"Polygon","coordinates":[[[-37.88393,-9.92521],[-37.89543,-9.92279],[-37.8889,-9.94056],[-37.88328,-9.93479],[-37.87391,-9.93575],[-37.86864,-9.92952],[-37.86259,-9.93695],[-37.86215,-9.92189],[-37.85885,-9.92219],[-37.85046,-9.9243],[-37.83979,-9.93438],[-37.82315,-9.9427],[-37.82182,-9.94889],[-37.8059,-9.95376],[-37.79656,-9.95235],[-37.78506,-9.96696],[-37.78638,-9.97429],[-37.78135,-9.99052],[-37.78508,-9.99649],[-37.79887,-10.00024],[-37.80613,-9.99885],[-37.81934,-10.00453],[-37.82363,-9.99805],[-37.84171,-9.99511],[-37.84939,-9.98917],[-37.85851,-9.9892],[-37.87545,-9.97877],[-37.88141,-9.98073],[-37.91552,-9.97586],[-37.92216,-9.97322],[-37.92734,-9.96558],[-37.93668,-9.96602],[-37.92648,-9.95382],[-37.92554,-9.94391],[-37.92025,-9.9359],[-37.90065,-9.92063],[-37.89735,-9.91304],[-37.88718,-9.91377],[-37.87045,-9.90228],[-37.88393,-9.92521]]]}},{"type":"Feature","properties":{"name_quilombo":"Mocambo - Se"},"geometry":{"type":"Polygon","coordinates":[[[-37.39481,-9.7787],[-37.43597,-9.84009],[-37.44433,-9.82944],[-37.44024,-9.8244],[-37.43982,-9.80947],[-37.43324,-9.8005],[-37.43374,-9.78678],[-37.42388,-9.77353],[-37.42446,-9.76854],[-37.43419,-9.76314],[-37.42959,-9.75197],[-37.40157,-9.76871],[-37.39481,-9.7787]]]}},{"type":"Feature","properties":{"name_quilombo":"Cajá dos Negros"},"geometry":{"type":"Polygon","coordinates":[[[-37.07357,-9.75391],[-37.08434,-9.75374],[-37.08824,-9.75752],[-37.09512,-9.75631],[-37.09531,-9.75246],[-37.11176,-9.75149],[-37.11226,-9.7489],[-37.10219,-9.74935],[-37.10156,-9.738],[-37.07767,-9.7386],[-37.07357,-9.75391]]]}},{"type":"Feature","properties":{"name_quilombo":"Tabacaria"},"geometry":{"type":"Polygon","coordinates":[[[-36.50356,-9.46946],[-36.5046,-9.46884],[-36.50308,-9.46945],[-36.50356,-9.46946]]]}},{"type":"Feature","properties":{"name_quilombo":"Castainho"},"geometry":{"type":"Polygon","coordinates":[[[-36.4663,-8.92251],[-36.45208,-8.92238],[-36.46129,-8.92274],[-36.46092,-8.92596],[-36.46837,-8.92778],[-36.45668,-8.93205],[-36.45722,-8.93453],[-36.46989,-8.93093],[-36.46855,-8.92789],[-36.48321,-8.919],[-36.47715,-8.9148],[-36.4663,-8.92251]]]}},{"type":"Feature","properties":{"name_quilombo":"Tq Negros do Osso"},"geometry":{"type":"MultiPolygon","coordinates":[[[[-36.89982,-8.41858],[-36.88934,-8.41285],[-36.8855,-8.42566],[-36.89032,-8.42611],[-36.89339,-8.42758],[-36.89801,-8.42248],[-36.89971,-8.43474],[-36.90588,-8.43353],[-36.9019,-8.44682],[-36.91247,-8.45247],[-36.9192,-8.44415],[-36.92061,-8.42238],[-36.90501,-8.42198],[-36.90612,-8.40923],[-36.90244,-8.40891],[-36.89982,-8.41858]]],[[[-36.88519,-8.43682],[-36.88928,-8.43721],[-36.89189,-8.42707],[-36.88828,-8.4263],[-36.88519,-8.43682]]]]}},{"type":"Feature","properties":{"name_quilombo":"Conceiçao das Crioulas"},"geometry":{"type":"Polygon","coordinates":[[[-38.98636,-8.25494],[-38.97854,-8.25409],[-38.97593,-8.24786],[-38.96253,-8.23686],[-38.93946,-8.22294],[-38.90989,-8.22172],[-38.90155,-8.22406],[-38.86792,-8.21477],[-38.85352,-8.22464],[-38.84522,-8.22576],[-38.8268,-8.22105],[-38.81996,-8.23817],[-38.91921,-8.33755],[-38.916,-8.34031],[-38.93095,-8.35686],[-38.93743,-8.35349],[-38.9537,-8.35735],[-38.96718,-8.35195],[-38.98232,-8.35623],[-38.99061,-8.27767],[-38.98636,-8.25494]]]}},{"type":"Feature","properties":{"name_quilombo":"Jatobá"},"geometry":{"type":"Polygon","coordinates":[[[-39.28916,-8.27105],[-39.2792,-8.30831],[-39.3273,-8.30779],[-39.35617,-8.29129],[-39.35332,-8.2803],[-39.34313,-8.27263],[-39.34908,-8.2628],[-39.34073,-8.25756],[-39.32826,-8.25633],[-39.31856,-8.2469],[-39.32419,-8.23213],[-39.29619,-8.22396],[-39.28707,-8.26913],[-39.28916,-8.27105]]]}},{"type":"Feature","properties":{"name_quilombo":"Santana Iii"},"geometry":{"type":"Polygon","coordinates":[[[-39.25211,-8.13914],[-39.23472,-8.15934],[-39.23351,-8.18564],[-39.22418,-8.18195],[-39.22143,-8.2245],[-39.2497,-8.21213],[-39.25396,-8.18043],[-39.26003,-8.16534],[-39.25976,-8.15732],[-39.26408,-8.15428],[-39.25211,-8.13914]]]}},{"type":"Feature","properties":{"name_quilombo":"Contendas"},"geometry":{"type":"Polygon","coordinates":[[[-39.27786,-8.1059],[-39.25447,-8.10929],[-39.26103,-8.11877],[-39.23843,-8.12142],[-39.24438,-8.13427],[-39.25431,-8.14286],[-39.28889,-8.13941],[-39.28859,-8.13674],[-39.32839,-8.12979],[-39.329,-8.12782],[-39.28845,-8.13351],[-39.28499,-8.12218],[-39.32364,-8.11667],[-39.28426,-8.12074],[-39.32199,-8.1142],[-39.32231,-8.10953],[-39.27786,-8.1059]]]}},{"type":"Feature","properties":{"name_quilombo":"Contente"},"geometry":{"type":"Polygon","coordinates":[[[-41.00359,-7.98808],[-40.99504,-7.99419],[-41.00203,-8.00991],[-41.00952,-8.01062],[-41.00768,-8.01619],[-41.01646,-8.01648],[-41.01797,-8.02129],[-41.02447,-8.01985],[-41.02304,-8.01367],[-41.0261,-8.01235],[-41.03348,-8.01812],[-41.04105,-8.0169],[-41.04101,-8.01377],[-41.03712,-8.01437],[-41.03529,-8.00671],[-41.02135,-8.0101],[-41.01911,-8.00597],[-41.01513,-8.00654],[-41.01297,-7.99428],[-41.00539,-7.99281],[-41.00359,-7.98808]]]}},{"type":"Feature","properties":{"name_quilombo":"Fazenda Nova"},"geometry":{"type":"Polygon","coordinates":[[[-41.54413,-7.70551],[-41.5293,-7.70207],[-41.52839,-7.70794],[-41.51966,-7.70952],[-41.5173,-7.71447],[-41.51085,-7.71772],[-41.51578,-7.72978],[-41.50746,-7.74033],[-41.51562,-7.75408],[-41.50381,-7.76319],[-41.48506,-7.79341],[-41.54021,-7.78313],[-41.57467,-7.76067],[-41.57326,-7.74578],[-41.57058,-7.74453],[-41.5764,-7.74016],[-41.581,-7.72722],[-41.58448,-7.72721],[-41.58707,-7.73607],[-41.58985,-7.73379],[-41.58494,-7.71752],[-41.59377,-7.71479],[-41.59134,-7.71228],[-41.58267,-7.71626],[-41.58149,-7.71014],[-41.56778,-7.69906],[-41.56463,-7.70277],[-41.5574,-7.69958],[-41.55695,-7.704],[-41.54413,-7.70551]]]}},{"type":"Feature","properties":{"name_quilombo":"Morrinho"},"geometry":{"type":"Polygon","coordinates":[[[-41.57321,-7.74579],[-41.57462,-7.76069],[-41.57897,-7.75795],[-41.59882,-7.76364],[-41.60973,-7.77122],[-41.62143,-7.76919],[-41.623,-7.76589],[-41.62798,-7.76838],[-41.62689,-7.76323],[-41.63115,-7.76175],[-41.63613,-7.76964],[-41.63589,-7.75422],[-41.64933,-7.74075],[-41.63958,-7.73147],[-41.63402,-7.73125],[-41.63419,-7.72711],[-41.63028,-7.72688],[-41.6309,-7.73143],[-41.6253,-7.73875],[-41.59856,-7.73516],[-41.59227,-7.73686],[-41.59166,-7.72929],[-41.59559,-7.72684],[-41.59009,-7.72098],[-41.58652,-7.72191],[-41.58979,-7.73381],[-41.58702,-7.73609],[-41.58442,-7.72723],[-41.58095,-7.72724],[-41.57634,-7.74018],[-41.57053,-7.74455],[-41.57321,-7.74579]]]}},{"type":"Feature","properties":{"name_quilombo":"Sabonete"},"geometry":{"type":"Polygon","coordinates":[[[-41.75477,-7.76641],[-41.758,-7.74697],[-41.78108,-7.73064],[-41.77391,-7.71961],[-41.78317,-7.72014],[-41.78445,-7.7162],[-41.76963,-7.71167],[-41.74851,-7.71921],[-41.74577,-7.72531],[-41.75085,-7.73374],[-41.74384,-7.73614],[-41.75141,-7.74768],[-41.7479,-7.75266],[-41.73986,-7.7446],[-41.74142,-7.73973],[-41.7351,-7.73388],[-41.72851,-7.7373],[-41.72677,-7.73355],[-41.71751,-7.73477],[-41.73194,-7.76019],[-41.75477,-7.76641]]]}},{"type":"Feature","properties":{"name_quilombo":"Volta do Campo Grande"},"geometry":{"type":"Polygon","coordinates":[[[-41.7766,-7.53707],[-41.76044,-7.53976],[-41.72197,-7.61839],[-41.7326,-7.6248],[-41.7948,-7.62909],[-41.83793,-7.64919],[-41.84629,-7.63367],[-41.84525,-7.5887],[-41.80577,-7.54302],[-41.7766,-7.53707]]]}},{"type":"Feature","properties":{"name_quilombo":"Serra dos Chagas"},"geometry":{"type":"Polygon","coordinates":[[[-40.3463,-7.24637],[-40.33253,-7.24575],[-40.33126,-7.25104],[-40.33933,-7.25402],[-40.34008,-7.27062],[-40.34365,-7.2707],[-40.34415,-7.27489],[-40.35451,-7.2733],[-40.35841,-7.28326],[-40.35118,-7.2871],[-40.35193,-7.3011],[-40.34683,-7.30405],[-40.35537,-7.32287],[-40.37014,-7.31869],[-40.36902,-7.3101],[-40.37746,-7.30814],[-40.37932,-7.29366],[-40.40161,-7.29497],[-40.40154,-7.28873],[-40.3758,-7.28847],[-40.38238,-7.28024],[-40.37853,-7.27509],[-40.38182,-7.27005],[-40.37629,-7.26349],[-40.37781,-7.26171],[-40.34972,-7.24876],[-40.34497,-7.25115],[-40.3463,-7.24637]]]}},{"type":"Feature","properties":{"name_quilombo":"Sitio Arruda"},"geometry":{"type":"Polygon","coordinates":[[[-40.2599,-7.19123],[-40.25776,-7.20887],[-40.27835,-7.2253],[-40.27564,-7.21049],[-40.26327,-7.20974],[-40.26776,-7.20084],[-40.26546,-7.1907],[-40.2599,-7.19123]]]}},{"type":"Feature","properties":{"name_quilombo":"Brejo dos Crioulos"},"geometry":{"type":"Polygon","coordinates":[[[-43.81693,-15.8067],[-43.81771,-15.80955],[-43.85289,-15.81708],[-43.84559,-15.85387],[-43.88384,-15.83574],[-43.87878,-15.8153],[-43.87059,-15.80862],[-43.86896,-15.80166],[-43.88164,-15.78948],[-43.90371,-15.78398],[-43.89762,-15.78067],[-43.89624,-15.78349],[-43.88424,-15.7747],[-43.8933,-15.7632],[-43.89085,-15.76189],[-43.89477,-15.75238],[-43.89723,-15.75471],[-43.90772,-15.73547],[-43.91221,-15.73704],[-43.91265,-15.73184],[-43.91105,-15.72758],[-43.90123,-15.72336],[-43.89224,-15.72399],[-43.89144,-15.72113],[-43.87737,-15.7251],[-43.86925,-15.71898],[-43.86523,-15.72034],[-43.85346,-15.71197],[-43.8491,-15.71209],[-43.84935,-15.70766],[-43.8445,-15.70557],[-43.82676,-15.71001],[-43.80656,-15.6896],[-43.8053,-15.67628],[-43.78855,-15.67395],[-43.77445,-15.69872],[-43.78323,-15.70359],[-43.77629,-15.71475],[-43.77161,-15.71236],[-43.74686,-15.76082],[-43.75174,-15.76231],[-43.75598,-15.77147],[-43.75581,-15.78081],[-43.7604,-15.78121],[-43.75802,-15.7915],[-43.81693,-15.8067]]]}},{"type":"Feature","properties":{"name_quilombo":"Sete Ladeiras E Terra Dura"},"geometry":{"type":"Polygon","coordinates":[[[-43.63047,-15.71019],[-43.62044,-15.71084],[-43.61902,-15.7166],[-43.60658,-15.72673],[-43.60303,-15.72099],[-43.59793,-15.72293],[-43.58558,-15.73558],[-43.59632,-15.7473],[-43.59497,-15.75488],[-43.61857,-15.76541],[-43.61754,-15.77345],[-43.62035,-15.77412],[-43.61813,-15.77981],[-43.61353,-15.78145],[-43.62176,-15.7847],[-43.61955,-15.78638],[-43.62233,-15.78638],[-43.62534,-15.79438],[-43.63381,-15.78771],[-43.65372,-15.78268],[-43.66145,-15.77456],[-43.66311,-15.76684],[-43.69615,-15.76257],[-43.67581,-15.73924],[-43.67501,-15.7308],[-43.66755,-15.7315],[-43.65573,-15.7149],[-43.64217,-15.71075],[-43.63206,-15.71343],[-43.63047,-15.71019]]]}},{"type":"Feature","properties":{"name_quilombo":"Gurutuba"},"geometry":{"type":"Polygon","coordinates":[[[-43.28832,-15.43966],[-43.29115,-15.42058],[-43.29695,-15.41869],[-43.29399,-15.41139],[-43.29401,-15.39875],[-43.29806,-15.39634],[-43.29542,-15.39128],[-43.29908,-15.38542],[-43.29641,-15.38422],[-43.29643,-15.36371],[-43.30689,-15.35522],[-43.31505,-15.3389],[-43.31035,-15.32921],[-43.3138,-15.32489],[-43.31179,-15.31634],[-43.31599,-15.30929],[-43.30935,-15.30676],[-43.30865,-15.29935],[-43.31147,-15.29251],[-43.32432,-15.29174],[-43.31681,-15.28345],[-43.31881,-15.27379],[-43.32306,-15.27002],[-43.3193,-15.26578],[-43.32394,-15.25912],[-43.30979,-15.23581],[-43.27555,-15.23226],[-43.27575,-15.21543],[-43.31194,-15.22123],[-43.30964,-15.21861],[-43.31435,-15.21477],[-43.31448,-15.20253],[-43.3186,-15.19703],[-43.31378,-15.19423],[-43.31685,-15.18631],[-43.31229,-15.16531],[-43.32007,-15.14961],[-43.32975,-15.14361],[-43.36403,-15.14757],[-43.37603,-15.13708],[-43.40127,-15.10523],[-43.36979,-15.06966],[-43.36843,-15.06192],[-43.37756,-15.06083],[-43.39046,-15.06769],[-43.40329,-15.06622],[-43.40578,-15.06335],[-43.40474,-15.05443],[-43.39564,-15.04923],[-43.38864,-15.04924],[-43.37248,-15.035],[-43.35417,-15.02484],[-43.35424,-15.01762],[-43.35019,-15.02172],[-43.32456,-15.02334],[-43.32824,-15.03797],[-43.32909,-15.06433],[-43.32245,-15.06949],[-43.32411,-15.0779],[-43.31264,-15.08397],[-43.30233,-15.08242],[-43.29178,-15.09138],[-43.29683,-15.09748],[-43.29036,-15.10749],[-43.29393,-15.11922],[-43.28923,-15.12073],[-43.28335,-15.11684],[-43.27414,-15.12342],[-43.2745,-15.12898],[-43.27144,-15.13096],[-43.27475,-15.13799],[-43.26464,-15.14284],[-43.27057,-15.15288],[-43.26627,-15.15864],[-43.26829,-15.16163],[-43.26069,-15.16837],[-43.26539,-15.17606],[-43.26079,-15.18921],[-43.26967,-15.19231],[-43.27103,-15.19714],[-43.26668,-15.19991],[-43.26741,-15.20488],[-43.26301,-15.20633],[-43.26624,-15.2094],[-43.2627,-15.21289],[-43.26473,-15.22065],[-43.25607,-15.2205],[-43.24793,-15.23852],[-43.25402,-15.2433],[-43.25538,-15.25376],[-43.23941,-15.26163],[-43.23594,-15.25909],[-43.22858,-15.26036],[-43.22219,-15.27047],[-43.22057,-15.26736],[-43.20567,-15.2801],[-43.2046,-15.30226],[-43.20799,-15.30573],[-43.2048,-15.30979],[-43.19886,-15.31059],[-43.20197,-15.31313],[-43.20074,-15.31681],[-43.20712,-15.32117],[-43.20683,-15.32809],[-43.19442,-15.32724],[-43.17714,-15.33862],[-43.17319,-15.33624],[-43.16284,-15.36043],[-43.15297,-15.36182],[-43.15297,-15.36719],[-43.14687,-15.37567],[-43.133,-15.37918],[-43.1295,-15.39071],[-43.11771,-15.39268],[-43.12107,-15.3999],[-43.10897,-15.41094],[-43.11115,-15.41543],[-43.10461,-15.41805],[-43.10892,-15.42712],[-43.12427,-15.4337],[-43.1409,-15.434],[-43.15286,-15.44426],[-43.16163,-15.43359],[-43.16721,-15.43448],[-43.16926,-15.42519],[-43.17344,-15.42822],[-43.17916,-15.4138],[-43.25381,-15.42125],[-43.26704,-15.43056],[-43.2475,-15.42807],[-43.24536,-15.43381],[-43.2642,-15.43536],[-43.28364,-15.44706],[-43.28377,-15.44311],[-43.28832,-15.43966]]]}},{"type":"Feature","properties":{"name_quilombo":"Lapinha"},"geometry":{"type":"MultiPolygon","coordinates":[[[[-43.91414,-14.91209],[-43.94987,-14.98712],[-43.93183,-14.99594],[-43.91819,-14.99885],[-43.92993,-15.02964],[-43.99396,-15.02081],[-44.0098,-15.04285],[-44.01894,-15.02632],[-44.0177,-15.01673],[-43.99627,-14.99642],[-43.98358,-14.97899],[-43.97134,-14.94453],[-43.95799,-14.93403],[-43.95164,-14.92645],[-43.94764,-14.91812],[-43.9477,-14.91228],[-43.94165,-14.89882],[-43.92209,-14.90602],[-43.92294,-14.90816],[-43.91414,-14.91209]]],[[[-43.96539,-14.93277],[-43.9513,-14.91772],[-43.94819,-14.9125],[-43.9524,-14.92624],[-43.96866,-14.94058],[-43.96539,-14.93277]]]]}},{"type":"Feature","properties":{"name_quilombo":"Tabua"},"geometry":{"type":"Polygon","coordinates":[[[-43.99812,-14.44621],[-43.98086,-14.47196],[-43.98373,-14.48467],[-43.96304,-14.47419],[-43.92222,-14.51656],[-43.9287,-14.52336],[-43.93979,-14.5208],[-43.94167,-14.52447],[-43.93844,-14.52733],[-43.94114,-14.5311],[-43.94511,-14.52825],[-43.95043,-14.53524],[-43.93121,-14.53866],[-43.90631,-14.53304],[-43.8802,-14.47025],[-43.85604,-14.48],[-43.87528,-14.51526],[-43.88286,-14.55834],[-43.90464,-14.59758],[-43.91387,-14.6411],[-43.92419,-14.64097],[-43.92969,-14.65646],[-43.93383,-14.65871],[-43.94289,-14.65758],[-43.94806,-14.66145],[-43.95329,-14.65929],[-43.95014,-14.65701],[-43.95602,-14.6516],[-43.94559,-14.62685],[-43.95768,-14.62995],[-43.95262,-14.61154],[-43.96088,-14.60875],[-43.96087,-14.61302],[-43.97136,-14.61506],[-43.99224,-14.61019],[-43.99423,-14.57216],[-43.99213,-14.56906],[-43.9974,-14.53676],[-43.99262,-14.53479],[-44.00412,-14.47915],[-44.00743,-14.48081],[-44.0005,-14.44664],[-43.99812,-14.44621]],[[-43.94598,-14.56335],[-43.94568,-14.56056],[-43.93486,-14.56761],[-43.92579,-14.55482],[-43.93224,-14.55257],[-43.93111,-14.54859],[-43.9199,-14.55379],[-43.89586,-14.53535],[-43.92714,-14.54474],[-43.96299,-14.53842],[-43.97278,-14.55285],[-43.94598,-14.56335]]]}},{"type":"Feature","properties":{"name_quilombo":"Pau d'Arco E Parateca"},"geometry":{"type":"MultiPolygon","coordinates":[[[[-43.69399,-14.23549],[-43.65044,-14.24785],[-43.62917,-14.28855],[-43.59605,-14.28583],[-43.58988,-14.29457],[-43.57716,-14.30057],[-43.57447,-14.30627],[-43.58948,-14.33436],[-43.67597,-14.31163],[-43.66854,-14.28867],[-43.67196,-14.29151],[-43.68035,-14.29203],[-43.67965,-14.28987],[-43.68056,-14.29219],[-43.72277,-14.29573],[-43.71811,-14.30132],[-43.72295,-14.32001],[-43.72723,-14.32535],[-43.73978,-14.3181],[-43.72757,-14.30129],[-43.74399,-14.28995],[-43.73373,-14.27425],[-43.72705,-14.2695],[-43.72332,-14.25691],[-43.69929,-14.22945],[-43.69399,-14.23549]]],[[[-43.67909,-14.13545],[-43.65963,-14.05735],[-43.65762,-14.01838],[-43.65187,-14.00341],[-43.63374,-13.98532],[-43.62724,-13.97324],[-43.62852,-13.95169],[-43.6104,-13.89497],[-43.61055,-13.87535],[-43.61846,-13.84954],[-43.61587,-13.83946],[-43.58599,-13.81427],[-43.51806,-13.79192],[-43.50974,-13.80461],[-43.51124,-13.81543],[-43.49962,-13.81728],[-43.48554,-13.89348],[-43.44258,-13.90541],[-43.46038,-13.94102],[-43.50331,-13.92908],[-43.53683,-13.92841],[-43.53635,-13.94526],[-43.54778,-13.9747],[-43.55904,-13.9854],[-43.55494,-13.99811],[-43.56004,-14.01158],[-43.55796,-14.01567],[-43.56103,-14.04006],[-43.5552,-14.04264],[-43.55517,-14.04867],[-43.56696,-14.06182],[-43.57233,-14.07668],[-43.56955,-14.08207],[-43.58983,-14.11679],[-43.59492,-14.13569],[-43.67909,-14.13545]]]]}},{"type":"Feature","properties":{"name_quilombo":"Barra do Parateca"},"geometry":{"type":"Polygon","coordinates":[[[-43.62722,-13.94351],[-43.64023,-13.9835],[-43.65665,-14.00455],[-43.66186,-14.02746],[-43.72174,-14.0249],[-43.70771,-13.93681],[-43.70483,-13.93389],[-43.62738,-13.93118],[-43.62722,-13.94351]]]}},{"type":"Feature","properties":{"name_quilombo":"Nova Batalhinha"},"geometry":{"type":"Polygon","coordinates":[[[-43.55045,-13.64629],[-43.43684,-13.66817],[-43.43767,-13.67277],[-43.44242,-13.67194],[-43.44475,-13.68463],[-43.39251,-13.69522],[-43.39808,-13.72179],[-43.54894,-13.69245],[-43.55045,-13.64629]]]}},{"type":"Feature","properties":{"name_quilombo":"Araca/Cariaca/ Pato/ Pedras/Retiro"},"geometry":{"type":"Polygon","coordinates":[[[-43.27414,-13.42985],[-43.25599,-13.4336],[-43.25799,-13.45167],[-43.29773,-13.44733],[-43.31777,-13.47993],[-43.32075,-13.47773],[-43.34935,-13.5236],[-43.4178,-13.49833],[-43.43685,-13.49725],[-43.42794,-13.48109],[-43.42965,-13.4571],[-43.42498,-13.43186],[-43.43845,-13.39706],[-43.44674,-13.38427],[-43.26026,-13.40498],[-43.27414,-13.42985]]]}},{"type":"Feature","properties":{"name_quilombo":"Lagoa do Peixe"},"geometry":{"type":"Polygon","coordinates":[[[-43.45636,-13.34233],[-43.38398,-13.34323],[-43.34416,-13.35347],[-43.33385,-13.35273],[-43.33417,-13.35814],[-43.30531,-13.38133],[-43.27923,-13.39286],[-43.27918,-13.39927],[-43.35141,-13.39443],[-43.35092,-13.38855],[-43.375,-13.38377],[-43.44093,-13.3735],[-43.4492,-13.37545],[-43.45772,-13.35789],[-43.45636,-13.34233]]]}},{"type":"Feature","properties":{"name_quilombo":"Lagoa das Piranhas"},"geometry":{"type":"Polygon","coordinates":[[[-43.44858,-13.187],[-43.42963,-13.2066],[-43.4311,-13.23521],[-43.51524,-13.24079],[-43.52317,-13.1792],[-43.52702,-13.17501],[-43.52693,-13.16675],[-43.53943,-13.14906],[-43.52362,-13.14081],[-43.51741,-13.12903],[-43.49791,-13.13101],[-43.49018,-13.13697],[-43.46377,-13.13198],[-43.45483,-13.15203],[-43.45421,-13.17502],[-43.44858,-13.187]]]}},{"type":"Feature","properties":{"name_quilombo":"Juá-Bandeira"},"geometry":{"type":"Polygon","coordinates":[[[-43.40364,-13.00206],[-43.39306,-12.97982],[-43.39942,-12.96069],[-43.39678,-12.93773],[-43.39934,-12.9188],[-43.32564,-12.92117],[-43.30566,-12.92576],[-43.21795,-12.92596],[-43.23753,-12.96623],[-43.22128,-12.96611],[-43.2208,-13.01609],[-43.35416,-13.02175],[-43.41528,-13.01556],[-43.40364,-13.00206]]]}},{"type":"Feature","properties":{"name_quilombo":"Mangal E Barro Vermelho"},"geometry":{"type":"Polygon","coordinates":[[[-43.29817,-12.74172],[-43.30939,-12.76318],[-43.33842,-12.79454],[-43.34347,-12.80481],[-43.41322,-12.78768],[-43.37933,-12.69616],[-43.35471,-12.70812],[-43.33229,-12.71162],[-43.29817,-12.74172]]]}},{"type":"Feature","properties":{"name_quilombo":"Fazenda Jatoba"},"geometry":{"type":"Polygon","coordinates":[[[-43.44623,-12.5381],[-43.32186,-12.5002],[-43.31766,-12.50966],[-43.32118,-12.51499],[-43.27895,-12.57988],[-43.2728,-12.57295],[-43.27075,-12.57703],[-43.27765,-12.58179],[-43.27146,-12.59174],[-43.26903,-12.60791],[-43.19277,-12.61361],[-43.18985,-12.62531],[-43.19585,-12.65728],[-43.20519,-12.66787],[-43.29326,-12.62751],[-43.28885,-12.61817],[-43.40726,-12.54217],[-43.44364,-12.55148],[-43.44623,-12.5381]]]}},{"type":"Feature","properties":{"name_quilombo":"Boa Vista do Pixaim"},"geometry":{"type":"Polygon","coordinates":[[[-43.37456,-11.97192],[-43.36173,-11.9727],[-43.35601,-11.98612],[-43.35069,-12.01605],[-43.30892,-12.05233],[-43.29602,-12.08219],[-43.29386,-12.10254],[-43.33019,-12.1091],[-43.33606,-12.09285],[-43.34287,-12.09772],[-43.33981,-12.11091],[-43.34911,-12.11257],[-43.35275,-12.11943],[-43.35821,-12.11791],[-43.36065,-12.09871],[-43.36433,-12.09458],[-43.37256,-12.10273],[-43.36705,-12.10916],[-43.36632,-12.12659],[-43.44168,-12.12857],[-43.45189,-12.10962],[-43.48118,-12.09228],[-43.49502,-12.0901],[-43.53004,-12.05566],[-43.5285,-12.04821],[-43.52433,-12.04795],[-43.50285,-12.05753],[-43.48521,-12.05579],[-43.467,-12.06377],[-43.45663,-12.06478],[-43.4674,-12.02609],[-43.49068,-12.00957],[-43.50345,-11.98485],[-43.50401,-11.967],[-43.48642,-11.94173],[-43.48554,-11.92837],[-43.45851,-11.91299],[-43.45929,-11.89722],[-43.45386,-11.89353],[-43.45353,-11.93287],[-43.44973,-11.94908],[-43.43112,-11.95721],[-43.4169,-11.96947],[-43.3997,-11.97418],[-43.38384,-11.96758],[-43.37456,-11.97192]]]}},{"type":"Feature","properties":{"name_quilombo":"Fazenda Grande"},"geometry":{"type":"Polygon","coordinates":[[[-43.31968,-11.86194],[-43.32876,-11.88261],[-43.34492,-11.89289],[-43.35466,-11.90615],[-43.3571,-11.92655],[-43.36103,-11.93266],[-43.36238,-11.96018],[-43.39086,-11.96197],[-43.40711,-11.96742],[-43.41685,-11.96635],[-43.44224,-11.9418],[-43.44981,-11.94148],[-43.44704,-11.90765],[-43.45384,-11.89234],[-43.46112,-11.86101],[-43.46228,-11.8117],[-43.44922,-11.80597],[-43.38956,-11.81839],[-43.34078,-11.81649],[-43.32243,-11.84766],[-43.32472,-11.83818],[-43.32164,-11.83945],[-43.31968,-11.86194]]]}},{"type":"Feature","properties":{"name_quilombo":"Riacho da Sacutiaba E Sacutiaba"},"geometry":{"type":"Polygon","coordinates":[[[-43.79003,-11.49618],[-43.79442,-11.5283],[-43.81793,-11.53613],[-43.87741,-11.53749],[-43.96425,-11.47032],[-43.95711,-11.46754],[-43.95224,-11.45714],[-43.93289,-11.44742],[-43.8983,-11.45663],[-43.88609,-11.45622],[-43.87671,-11.45148],[-43.79003,-11.49618]]]}},{"type":"Feature","properties":{"name_quilombo":"Torrinha"},"geometry":{"type":"Polygon","coordinates":[[[-43.47283,-11.38987],[-43.45627,-11.39961],[-43.45356,-11.39475],[-43.30352,-11.46143],[-43.26418,-11.47548],[-43.28396,-11.51982],[-43.31135,-11.50767],[-43.47283,-11.38987]]]}},{"type":"Feature","properties":{"name_quilombo":"Vicentes"},"geometry":{"type":"Polygon","coordinates":[[[-42.61663,-10.62715],[-42.61323,-10.62946],[-42.61525,-10.6337],[-42.66754,-10.62723],[-42.66895,-10.62312],[-42.66795,-10.62064],[-42.66326,-10.6231],[-42.65917,-10.61839],[-42.6227,-10.62966],[-42.61663,-10.62715]]]}},{"type":"Feature","properties":{"name_quilombo":"Lagoas"},"geometry":{"type":"Polygon","coordinates":[[[-42.68903,-9.36843],[-42.697,-9.40102],[-42.70432,-9.40197],[-42.69611,-9.41403],[-42.69039,-9.4124],[-42.69057,-9.417],[-42.67915,-9.41323],[-42.68593,-9.42353],[-42.67167,-9.43041],[-42.66632,-9.42986],[-42.66557,-9.4366],[-42.68187,-9.44566],[-42.67449,-9.45663],[-42.68229,-9.4588],[-42.68477,-9.45428],[-42.68886,-9.45574],[-42.68643,-9.44522],[-42.71383,-9.43905],[-42.71652,-9.44695],[-42.73577,-9.4487],[-42.73561,-9.44557],[-42.75699,-9.44886],[-42.75598,-9.44581],[-42.78965,-9.44307],[-42.78957,-9.45265],[-42.80122,-9.45614],[-42.79735,-9.44809],[-42.7949,-9.4483],[-42.79676,-9.4416],[-42.81985,-9.42351],[-42.84358,-9.44173],[-42.83397,-9.42014],[-42.84822,-9.41644],[-42.84755,-9.40963],[-42.85562,-9.40659],[-42.85719,-9.3931],[-42.84983,-9.36995],[-42.85507,-9.37186],[-42.85697,-9.35815],[-42.86936,-9.35449],[-42.8664,-9.34515],[-42.87622,-9.33914],[-42.87571,-9.33523],[-42.88073,-9.33535],[-42.87919,-9.32724],[-42.88544,-9.32713],[-42.88495,-9.32237],[-42.88832,-9.3214],[-42.87476,-9.31158],[-42.87939,-9.31002],[-42.87332,-9.30028],[-42.87801,-9.2984],[-42.87514,-9.29014],[-42.85211,-9.26802],[-42.86382,-9.26332],[-42.85796,-9.25051],[-42.85313,-9.25146],[-42.85586,-9.25956],[-42.85238,-9.2606],[-42.85366,-9.26599],[-42.85126,-9.26717],[-42.83483,-9.25049],[-42.81211,-9.2181],[-42.79644,-9.21376],[-42.80616,-9.1847],[-42.77276,-9.18261],[-42.7588,-9.17464],[-42.75296,-9.17645],[-42.73635,-9.1715],[-42.73345,-9.17607],[-42.72745,-9.16948],[-42.7172,-9.19122],[-42.67373,-9.16012],[-42.65603,-9.22467],[-42.62066,-9.25588],[-42.60249,-9.29828],[-42.65806,-9.34419],[-42.66841,-9.34192],[-42.66125,-9.36376],[-42.67252,-9.36219],[-42.67122,-9.36615],[-42.68505,-9.36568],[-42.6853,-9.36856],[-42.68903,-9.36843]]]}},{"type":"Feature","properties":{"name_quilombo":"Riacho dos Negros"},"geometry":{"type":"Polygon","coordinates":[[[-42.36555,-8.04869],[-42.36801,-8.05345],[-42.34902,-8.07185],[-42.34159,-8.06584],[-42.33953,-8.06709],[-42.33675,-8.06012],[-42.31757,-8.0693],[-42.32488,-8.08088],[-42.33647,-8.07705],[-42.33665,-8.08034],[-42.34147,-8.08028],[-42.33776,-8.08816],[-42.34054,-8.09059],[-42.33347,-8.10051],[-42.33436,-8.1108],[-42.32773,-8.11192],[-42.32946,-8.11725],[-42.31952,-8.1191],[-42.3143,-8.114],[-42.30492,-8.11589],[-42.27408,-8.09648],[-42.2046,-8.1397],[-42.21945,-8.16055],[-42.23199,-8.17066],[-42.23567,-8.203],[-42.26212,-8.2499],[-42.24675,-8.28642],[-42.25943,-8.28349],[-42.26972,-8.28844],[-42.27699,-8.28326],[-42.294,-8.28586],[-42.29202,-8.2701],[-42.29733,-8.2626],[-42.3044,-8.26108],[-42.30963,-8.24292],[-42.32399,-8.23491],[-42.32585,-8.23861],[-42.33219,-8.23341],[-42.32337,-8.22103],[-42.31728,-8.20236],[-42.2782,-8.14284],[-42.28646,-8.1333],[-42.28165,-8.12941],[-42.2977,-8.11274],[-42.32019,-8.13929],[-42.32155,-8.1468],[-42.34186,-8.16906],[-42.35356,-8.17639],[-42.33862,-8.18444],[-42.36605,-8.22344],[-42.37232,-8.22447],[-42.37209,-8.22151],[-42.37693,-8.22149],[-42.37945,-8.21828],[-42.37716,-8.21358],[-42.3826,-8.20812],[-42.3846,-8.20912],[-42.38237,-8.21171],[-42.38886,-8.20832],[-42.3939,-8.21189],[-42.40439,-8.20948],[-42.40962,-8.20427],[-42.41094,-8.20709],[-42.41852,-8.20399],[-42.42866,-8.20524],[-42.44588,-8.19121],[-42.44043,-8.18004],[-42.43267,-8.18495],[-42.43008,-8.18183],[-42.42929,-8.1877],[-42.41782,-8.19086],[-42.41823,-8.18515],[-42.39318,-8.16428],[-42.40681,-8.15483],[-42.40453,-8.14588],[-42.49109,-8.09132],[-42.46634,-8.07966],[-42.45377,-8.07828],[-42.43635,-8.06317],[-42.41569,-8.08654],[-42.40247,-8.08811],[-42.39952,-8.08249],[-42.386,-8.08329],[-42.38788,-8.06257],[-42.39412,-8.06246],[-42.39484,-8.0668],[-42.40761,-8.06699],[-42.40948,-8.05292],[-42.36946,-8.03672],[-42.3576,-8.04416],[-42.36132,-8.05087],[-42.36555,-8.04869]]]}},{"type":"Feature","properties":{"name_quilombo":"Vaca Morta"},"geometry":{"type":"Polygon","coordinates":[[[-38.27907,-7.47895],[-38.25705,-7.47978],[-38.25695,-7.48946],[-38.25181,-7.49342],[-38.28318,-7.51373],[-38.29586,-7.50578],[-38.29915,-7.49662],[-38.28824,-7.48382],[-38.27907,-7.47895]]]}},{"type":"Feature","properties":{"name_quilombo":"Matao"},"geometry":{"type":"Polygon","coordinates":[[[-35.5005,-7.21936],[-35.49552,-7.23119],[-35.49893,-7.23117],[-35.49847,-7.23641],[-35.50506,-7.23438],[-35.50517,-7.22983],[-35.50972,-7.22936],[-35.50991,-7.21955],[-35.5005,-7.21936]]]}},{"type":"Feature","properties":{"name_quilombo":"Grilo"},"geometry":{"type":"Polygon","coordinates":[[[-35.6672,-7.22015],[-35.65728,-7.22027],[-35.65916,-7.22489],[-35.65216,-7.22473],[-35.65406,-7.23291],[-35.66248,-7.23319],[-35.65977,-7.22633],[-35.66687,-7.22336],[-35.6672,-7.22015]]]}},{"type":"Feature","properties":{"name_quilombo":"Pedra Dagua"},"geometry":{"type":"Polygon","coordinates":[[[-35.63972,-7.18075],[-35.628,-7.18209],[-35.62775,-7.18539],[-35.62417,-7.18477],[-35.62428,-7.19125],[-35.63073,-7.18797],[-35.6418,-7.18942],[-35.63972,-7.18075]]]}},{"type":"Feature","properties":{"name_quilombo":"Caiana dos Crioulos"},"geometry":{"type":"Polygon","coordinates":[[[-35.69529,-7.09808],[-35.69123,-7.09737],[-35.68884,-7.10623],[-35.694,-7.1074],[-35.69559,-7.11396],[-35.70078,-7.11505],[-35.70223,-7.1086],[-35.70683,-7.10948],[-35.7079,-7.10408],[-35.71571,-7.11071],[-35.72133,-7.09739],[-35.70003,-7.08402],[-35.69529,-7.09808]]]}},{"type":"Feature","properties":{"name_quilombo":"Engenho Mundo Novo"},"geometry":{"type":"Polygon","coordinates":[[[-35.76649,-7.00475],[-35.77099,-7.0134],[-35.77761,-7.01046],[-35.7732,-7.00045],[-35.76823,-7.00037],[-35.76649,-7.00475]]]}},{"type":"Feature","properties":{"name_quilombo":"Comunidade Urbana de Serra do Talhado"},"geometry":{"type":"Polygon","coordinates":[[[-36.9088,-6.87444],[-36.90981,-6.87675],[-36.90623,-6.87668],[-36.91126,-6.87989],[-36.91128,-6.8746],[-36.9088,-6.87444]]]}},{"type":"Feature","properties":{"name_quilombo":"Pitombeira"},"geometry":{"type":"Polygon","coordinates":[[[-36.97037,-6.81363],[-36.96122,-6.83132],[-36.97638,-6.83864],[-36.98489,-6.83296],[-36.97037,-6.81363]]]}},{"type":"Feature","properties":{"name_quilombo":"Boa Vista dos Negros"},"geometry":{"type":"Polygon","coordinates":[[[-36.64872,-6.62557],[-36.6476,-6.60132],[-36.64155,-6.60177],[-36.63942,-6.59016],[-36.6302,-6.59655],[-36.63077,-6.59924],[-36.63529,-6.59817],[-36.63379,-6.61893],[-36.63704,-6.61949],[-36.63845,-6.62496],[-36.6447,-6.62325],[-36.64872,-6.62557]]]}},{"type":"Feature","properties":{"name_quilombo":"Macambira"},"geometry":{"type":"Polygon","coordinates":[[[-36.56373,-6.06791],[-36.57268,-6.07005],[-36.57499,-6.06174],[-36.56909,-6.06096],[-36.57213,-6.04804],[-36.58829,-6.0535],[-36.59394,-6.05236],[-36.59472,-6.04373],[-36.57643,-6.03276],[-36.56142,-6.0414],[-36.55892,-6.0295],[-36.55529,-6.03047],[-36.55673,-6.03925],[-36.53748,-6.04703],[-36.52369,-6.09731],[-36.53109,-6.10503],[-36.54689,-6.06955],[-36.55263,-6.06705],[-36.5477,-6.08487],[-36.54133,-6.08899],[-36.54902,-6.09109],[-36.55112,-6.08737],[-36.54998,-6.09134],[-36.55492,-6.09103],[-36.55107,-6.10535],[-36.55337,-6.10601],[-36.56373,-6.06791]]]}},{"type":"Feature","properties":{"name_quilombo":"Jatobá"},"geometry":{"type":"Polygon","coordinates":[[[-37.59902,-6.02293],[-37.59645,-6.03909],[-37.61575,-6.02774],[-37.6119,-6.0274],[-37.61347,-6.02043],[-37.60893,-6.02266],[-37.60725,-6.0177],[-37.59902,-6.02293]]]}},{"type":"Feature","properties":{"name_quilombo":"Capoeiras"},"geometry":{"type":"Polygon","coordinates":[[[-35.5401,-6.02877],[-35.53614,-6.01724],[-35.53887,-6.01554],[-35.53641,-5.99072],[-35.51924,-5.99097],[-35.51513,-6.01972],[-35.51829,-6.02301],[-35.51602,-6.02443],[-35.52462,-6.03013],[-35.53133,-6.02723],[-35.53285,-6.03129],[-35.5401,-6.02877]]]}},{"type":"Feature","properties":{"name_quilombo":"Sítio Pavilhão"},"geometry":{"type":"Polygon","coordinates":[[[-35.5431,-5.96703],[-35.5397,-5.98844],[-35.54596,-5.9703],[-35.5431,-5.96703]]]}},{"type":"Feature","properties":{"name_quilombo":"Nova Descoberta"},"geometry":{"type":"Polygon","coordinates":[[[-35.52868,-5.80583],[-35.5231,-5.80879],[-35.52027,-5.8052],[-35.51641,-5.82282],[-35.52849,-5.83141],[-35.53612,-5.82397],[-35.53892,-5.80994],[-35.52789,-5.80905],[-35.52868,-5.80583]]]}},{"type":"Feature","properties":{"name_quilombo":"Acauã"},"geometry":{"type":"MultiPolygon","coordinates":[[[[-35.68505,-5.62474],[-35.68688,-5.60729],[-35.68489,-5.60434],[-35.67845,-5.60456],[-35.68038,-5.62218],[-35.68505,-5.62474]]],[[[-35.69737,-5.66645],[-35.69525,-5.6458],[-35.69205,-5.64563],[-35.69259,-5.64287],[-35.68715,-5.64483],[-35.68007,-5.63261],[-35.67724,-5.63953],[-35.68602,-5.64709],[-35.68242,-5.6483],[-35.68302,-5.66121],[-35.68774,-5.6596],[-35.6886,-5.66831],[-35.69737,-5.66645]]]]}},{"type":"Feature","properties":{"name_quilombo":"Aroeiras"},"geometry":{"type":"Polygon","coordinates":[[[-36.43013,-5.50233],[-36.44235,-5.52125],[-36.44715,-5.53678],[-36.45916,-5.55493],[-36.46241,-5.55194],[-36.45943,-5.54589],[-36.46316,-5.54409],[-36.45372,-5.52963],[-36.4565,-5.52752],[-36.44824,-5.51401],[-36.44654,-5.51604],[-36.44087,-5.51026],[-36.44158,-5.5069],[-36.43013,-5.50233]]]}},{"type":"Feature","properties":{"name_quilombo":"Córrego de Ubaranas"},"geometry":{"type":"Polygon","coordinates":[[[-37.68607,-4.59367],[-37.66721,-4.60228],[-37.65728,-4.64462],[-37.66845,-4.645],[-37.6698,-4.64115],[-37.67899,-4.64269],[-37.68308,-4.62742],[-37.68702,-4.62559],[-37.68184,-4.64386],[-37.68931,-4.64647],[-37.70032,-4.60731],[-37.68324,-4.60417],[-37.68607,-4.59367]]]}},{"type":"Feature","properties":{"name_quilombo":"Alto Alegre, Adjacências E Base"},"geometry":{"type":"Polygon","coordinates":[[[-38.52009,-4.15132],[-38.51248,-4.13886],[-38.50592,-4.13999],[-38.50147,-4.13297],[-38.49355,-4.139],[-38.48681,-4.12968],[-38.48615,-4.14012],[-38.48998,-4.13976],[-38.49893,-4.15836],[-38.51714,-4.15539],[-38.52009,-4.15132]]]}},{"type":"Feature","properties":{"name_quilombo":"Lagoa do Ramo E Goiabeira"},"geometry":{"type":"Polygon","coordinates":[[[-38.4677,-4.03521],[-38.48412,-4.02508],[-38.48435,-4.01847],[-38.47694,-4.0227],[-38.47484,-4.01559],[-38.4696,-4.01663],[-38.46653,-4.00984],[-38.46255,-4.01323],[-38.45076,-4.0002],[-38.45077,-4.0027],[-38.44397,-3.99133],[-38.43592,-3.99576],[-38.41887,-3.99753],[-38.41486,-4.00194],[-38.4252,-4.00638],[-38.43722,-4.0182],[-38.44458,-4.01864],[-38.45518,-4.03108],[-38.46662,-4.02858],[-38.4677,-4.03521]]]}},{"type":"Feature","properties":{"name_quilombo":"Sitio Velho"},"geometry":{"type":"Polygon","coordinates":[[[-40.93524,-5.8075],[-40.92654,-5.80034],[-40.91916,-5.79868],[-40.93164,-5.80984],[-40.93524,-5.8075]]]}},{"type":"Feature","properties":{"name_quilombo":"Macacos"},"geometry":{"type":"MultiPolygon","coordinates":[[[[-41.32984,-5.62798],[-41.32199,-5.6326],[-41.32141,-5.62937],[-41.32112,-5.63284],[-41.31297,-5.63158],[-41.30651,-5.62558],[-41.3003,-5.63345],[-41.29839,-5.64331],[-41.31783,-5.65265],[-41.32367,-5.66221],[-41.32952,-5.65987],[-41.33616,-5.64977],[-41.33695,-5.64248],[-41.32984,-5.62798]]],[[[-41.33099,-5.62652],[-41.32984,-5.6225],[-41.32451,-5.62051],[-41.33099,-5.62652]]],[[[-41.32037,-5.61667],[-41.31949,-5.61549],[-41.31649,-5.61307],[-41.32037,-5.61667]]],[[[-41.31281,-5.60966],[-41.31189,-5.60652],[-41.30672,-5.604],[-41.31281,-5.60966]]]]}},{"type":"Feature","properties":{"name_quilombo":"Minador"},"geometry":{"type":"Polygon","coordinates":[[[-40.86116,-5.52668],[-40.86563,-5.5293],[-40.86527,-5.53464],[-40.86161,-5.53746],[-40.86377,-5.54676],[-40.90757,-5.54802],[-40.90825,-5.55084],[-40.91651,-5.54948],[-40.91496,-5.53951],[-40.92448,-5.53939],[-40.92056,-5.52767],[-40.90222,-5.51814],[-40.89862,-5.52045],[-40.8887,-5.51689],[-40.87836,-5.52189],[-40.86142,-5.51611],[-40.86116,-5.52668]]]}},{"type":"Feature","properties":{"name_quilombo":"Queimadas"},"geometry":{"type":"Polygon","coordinates":[[[-40.90967,-5.24547],[-40.92916,-5.19945],[-40.86793,-5.19877],[-40.86472,-5.19218],[-40.85813,-5.19169],[-40.85517,-5.18733],[-40.82961,-5.19436],[-40.8321,-5.20284],[-40.82956,-5.21788],[-40.8521,-5.28074],[-40.85863,-5.27901],[-40.87244,-5.28824],[-40.90662,-5.28565],[-40.90967,-5.24547]]]}},{"type":"Feature","properties":{"name_quilombo":"Sítio Veiga"},"geometry":{"type":"Polygon","coordinates":[[[-39.11349,-4.88161],[-39.11224,-4.88752],[-39.10633,-4.88879],[-39.10856,-4.89215],[-39.09563,-4.89733],[-39.0979,-4.90349],[-39.10675,-4.90733],[-39.10755,-4.91752],[-39.11486,-4.91744],[-39.11971,-4.92239],[-39.12594,-4.91898],[-39.1188,-4.90765],[-39.13063,-4.91275],[-39.13389,-4.90583],[-39.1295,-4.90384],[-39.12175,-4.88625],[-39.12425,-4.8804],[-39.11349,-4.88161]]]}},{"type":"Feature","properties":{"name_quilombo":"Brutos"},"geometry":{"type":"Polygon","coordinates":[[[-40.28162,-4.79947],[-40.2881,-4.79958],[-40.30128,-4.81177],[-40.30675,-4.81251],[-40.31198,-4.82041],[-40.31933,-4.8189],[-40.32341,-4.77134],[-40.30059,-4.78044],[-40.30287,-4.78839],[-40.27863,-4.7927],[-40.28162,-4.79947]]]}},{"type":"Feature","properties":{"name_quilombo":"Lagoa das Pedras E Encantados do Bom Jardim"},"geometry":{"type":"Polygon","coordinates":[[[-40.31581,-4.72866],[-40.30406,-4.73654],[-40.29225,-4.73865],[-40.2905,-4.7429],[-40.2751,-4.75098],[-40.29103,-4.75936],[-40.30095,-4.7808],[-40.33753,-4.76636],[-40.31581,-4.72866]]]}},{"type":"Feature","properties":{"name_quilombo":"Tres Irmaos"},"geometry":{"type":"Polygon","coordinates":[[[-41.07821,-4.42637],[-41.06588,-4.44564],[-41.05466,-4.44956],[-41.05854,-4.48015],[-41.11317,-4.47999],[-41.11174,-4.44285],[-41.08448,-4.42772],[-41.07821,-4.42637]]]}},{"type":"Feature","properties":{"name_quilombo":"Água Preta"},"geometry":{"type":"Polygon","coordinates":[[[-39.38859,-3.60662],[-39.37976,-3.61819],[-39.38853,-3.61667],[-39.38668,-3.62264],[-39.39378,-3.61156],[-39.39041,-3.62375],[-39.39493,-3.62422],[-39.39699,-3.60845],[-39.38859,-3.60662]]]}},{"type":"Feature","properties":{"name_quilombo":"Boqueirao da Arara"},"geometry":{"type":"Polygon","coordinates":[[[-38.78904,-3.70887],[-38.78369,-3.70256],[-38.77713,-3.70639],[-38.77402,-3.72174],[-38.77629,-3.73827],[-38.7884,-3.74966],[-38.79365,-3.74716],[-38.78994,-3.72774],[-38.79409,-3.72708],[-38.78451,-3.71209],[-38.78904,-3.70887]]]}},{"type":"Feature","properties":{"name_quilombo":"Timbaúba"},"geometry":{"type":"Polygon","coordinates":[[[-40.59019,-3.4991],[-40.57673,-3.50387],[-40.5667,-3.5167],[-40.57244,-3.52349],[-40.56249,-3.52611],[-40.56115,-3.53149],[-40.54955,-3.54113],[-40.58378,-3.54105],[-40.62869,-3.53148],[-40.623,-3.52664],[-40.60628,-3.52632],[-40.60717,-3.51818],[-40.61218,-3.5141],[-40.60645,-3.51112],[-40.60434,-3.51481],[-40.6068,-3.51578],[-40.59862,-3.52622],[-40.59985,-3.52869],[-40.59789,-3.52628],[-40.59774,-3.52081],[-40.59576,-3.52015],[-40.58904,-3.53475],[-40.59104,-3.53704],[-40.58645,-3.53908],[-40.587,-3.53423],[-40.58391,-3.5341],[-40.58675,-3.53119],[-40.58605,-3.52497],[-40.57845,-3.5265],[-40.58171,-3.52353],[-40.57672,-3.5198],[-40.57727,-3.51503],[-40.5829,-3.51817],[-40.58411,-3.52304],[-40.58983,-3.51708],[-40.59424,-3.5177],[-40.58983,-3.51362],[-40.59706,-3.50892],[-40.59255,-3.50807],[-40.59019,-3.4991]]]}},{"type":"Feature","properties":{"name_quilombo":"Córrego dos Iús"},"geometry":{"type":"Polygon","coordinates":[[[-40.33809,-2.81769],[-40.33726,-2.82417],[-40.3431,-2.82657],[-40.33707,-2.82561],[-40.32999,-2.87085],[-40.3494,-2.87413],[-40.3559,-2.83841],[-40.35259,-2.83768],[-40.35367,-2.83126],[-40.3445,-2.82683],[-40.35002,-2.82573],[-40.35084,-2.82005],[-40.33809,-2.81769]]]}}]}