{"type":"FeatureCollection","name":"terras_indigenas","crs":{"type":"name","properties":{"name":"urn:ogc:def:crs:OGC:1.3:CRS84"}},"features":[{"type":"Feature","properties":{"name_indigenous_land":"Fazenda Jenipapeiro","abbrev_state":"BA","code_indigenous_land":73717},"geometry":{"type":"Polygon","coordinates":[[[-44.73518,-11.06486],[-44.74811,-11.04706],[-44.75205,-11.04667],[-44.77116,-11.02096],[-44.77172,-11.00998],[-44.77644,-10.99966],[-44.77177,-10.99485],[-44.76453,-10.99794],[-44.75687,-11.01684],[-44.76055,-11.01939],[-44.75393,-11.02394],[-44.74533,-11.02485],[-44.73686,-11.01477],[-44.7291,-11.01665],[-44.72922,-11.03831],[-44.73518,-11.06486]]]}},{"type":"Feature","properties":{"name_indigenous_land":"Xakriabá Rancharia","abbrev_state":"MG","code_indigenous_land":50001},"geometry":{"type":"Polygon","coordinates":[[[-44.08867,-14.9309],[-44.06962,-14.92521],[-44.06709,-14.9367],[-44.07191,-14.96555],[-44.12241,-14.97264],[-44.13802,-14.96653],[-44.14611,-14.94797],[-44.16362,-14.93435],[-44.16531,-14.92943],[-44.17394,-14.92599],[-44.17397,-14.92025],[-44.18258,-14.91423],[-44.17661,-14.9045],[-44.13442,-14.88407],[-44.11299,-14.90582],[-44.10764,-14.91575],[-44.08867,-14.9309]]]}},{"type":"Feature","properties":{"name_indigenous_land":"Vargem Alegre","abbrev_state":"BA","code_indigenous_land":48901},"geometry":{"type":"Polygon","coordinates":[[[-43.75652,-13.40079],[-43.76068,-13.41856],[-43.80505,-13.4085],[-43.80081,-13.39054],[-43.75652,-13.40079]]]}},{"type":"Feature","properties":{"name_indigenous_land":"Fazenda Remanso","abbrev_state":"BA","code_indigenous_land":69801},"geometry":{"type":"Polygon","coordinates":[[[-43.35589,-12.35697],[-43.35671,-12.35309],[-43.28896,-12.34004],[-43.2885,-12.34413],[-43.35589,-12.35697]]]}},{"type":"Feature","properties":{"name_indigenous_land":"Fazenda Sempre Verde","abbrev_state":"BA","code_indigenous_land":73742},"geometry":{"type":"Polygon","coordinates":[[[-43.23527,-12.18213],[-43.22954,-12.1815],[-43.22802,-12.18657],[-43.2358,-12.19051],[-43.2734,-12.17934],[-43.31398,-12.18347],[-43.30657,-12.17283],[-43.27549,-12.16724],[-43.23527,-12.18213]]]}},{"type":"Feature","properties":{"name_indigenous_land":"Barra","abbrev_state":"BA","code_indigenous_land":5701},"geometry":{"type":"Polygon","coordinates":[[[-43.25488,-12.17376],[-43.26087,-12.17132],[-43.24587,-12.168],[-43.2421,-12.17091],[-43.25488,-12.17376]]]}},{"type":"Feature","properties":{"name_indigenous_land":"Tuxá de Ibotirama","abbrev_state":"BA","code_indigenous_land":15401},"geometry":{"type":"Polygon","coordinates":[[[-43.29136,-12.07581],[-43.22478,-12.05257],[-43.22485,-12.08563],[-43.27803,-12.09467],[-43.28087,-12.08685],[-43.29136,-12.07581]]]}},{"type":"Feature","properties":{"name_indigenous_land":"Kiriri","abbrev_state":"BA","code_indigenous_land":23101},"geometry":{"type":"Polygon","coordinates":[[[-38.63135,-10.71655],[-38.67401,-10.69913],[-38.69172,-10.65695],[-38.6741,-10.61476],[-38.63138,-10.59717],[-38.58878,-10.61489],[-38.57113,-10.6568],[-38.58869,-10.69901],[-38.63135,-10.71655]]]}},{"type":"Feature","properties":{"name_indigenous_land":"Fazenda Sítio","abbrev_state":"BA","code_indigenous_land":69901},"geometry":{"type":"Polygon","coordinates":[[[-38.71709,-10.612],[-38.72545,-10.62088],[-38.72318,-10.62308],[-38.72697,-10.6268],[-38.72427,-10.62908],[-38.73512,-10.64827],[-38.73641,-10.64633],[-38.73686,-10.65262],[-38.74072,-10.65287],[-38.74024,-10.65087],[-38.74062,-10.6331],[-38.72261,-10.61248],[-38.72221,-10.6093],[-38.72154,-10.60971],[-38.72106,-10.60884],[-38.72055,-10.60904],[-38.71709,-10.612]]]}},{"type":"Feature","properties":{"name_indigenous_land":"Massacara","abbrev_state":"BA","code_indigenous_land":27601},"geometry":{"type":"Polygon","coordinates":[[[-38.7578,-10.48707],[-38.7734,-10.47432],[-38.7776,-10.46717],[-38.81978,-10.45274],[-38.83273,-10.42099],[-38.82085,-10.40338],[-38.80452,-10.39134],[-38.75692,-10.38456],[-38.73731,-10.40687],[-38.74374,-10.47156],[-38.74653,-10.47926],[-38.7578,-10.48707]]]}},{"type":"Feature","properties":{"name_indigenous_land":"Kariri-Xocó","abbrev_state":"AL","code_indigenous_land":21702},"geometry":{"type":"MultiPolygon","coordinates":[[[[-36.86667,-10.14088],[-36.88034,-10.13438],[-36.87688,-10.12804],[-36.87902,-10.12728],[-36.87095,-10.12087],[-36.8675,-10.12236],[-36.8718,-10.11302],[-36.85785,-10.11164],[-36.85147,-10.10545],[-36.84742,-10.10912],[-36.8447,-10.10551],[-36.82151,-10.10867],[-36.79344,-10.14125],[-36.79258,-10.15024],[-36.79786,-10.15064],[-36.8022,-10.14359],[-36.81663,-10.13819],[-36.83387,-10.14071],[-36.85105,-10.13665],[-36.86667,-10.14088]]],[[[-36.79965,-10.15703],[-36.79869,-10.156],[-36.79805,-10.15703],[-36.79965,-10.15703]]]]}},{"type":"Feature","properties":{"name_indigenous_land":"Aconã","abbrev_state":"AL","code_indigenous_land":601},"geometry":{"type":"Polygon","coordinates":[[[-36.94513,-10.07113],[-36.93794,-10.06205],[-36.9369,-10.06282],[-36.93572,-10.06037],[-36.93227,-10.05727],[-36.91424,-10.03408],[-36.91334,-10.0352],[-36.91328,-10.03576],[-36.9124,-10.03629],[-36.91173,-10.03764],[-36.9118,-10.03833],[-36.91001,-10.03874],[-36.9114,-10.04033],[-36.9133,-10.04173],[-36.91617,-10.04688],[-36.91758,-10.04805],[-36.91861,-10.04798],[-36.93081,-10.06193],[-36.93104,-10.06093],[-36.93871,-10.06907],[-36.93925,-10.0691],[-36.94016,-10.06983],[-36.93986,-10.07063],[-36.94184,-10.07313],[-36.94513,-10.07113]]]}},{"type":"Feature","properties":{"name_indigenous_land":"Karapotó","abbrev_state":"AL","code_indigenous_land":21401},"geometry":{"type":"Polygon","coordinates":[[[-36.60351,-9.99504],[-36.6001,-9.99679],[-36.62138,-10.01975],[-36.61638,-10.03167],[-36.61997,-10.03243],[-36.62588,-10.02602],[-36.64339,-10.03824],[-36.64843,-10.03018],[-36.64912,-10.02063],[-36.64328,-10.00914],[-36.63394,-10.01526],[-36.63574,-10.01154],[-36.63163,-10.00976],[-36.62577,-10.01875],[-36.62435,-10.01668],[-36.63045,-10.0097],[-36.62366,-10.00745],[-36.61689,-9.99768],[-36.61288,-9.99881],[-36.61371,-9.99313],[-36.60783,-9.99365],[-36.61086,-9.99003],[-36.60801,-9.98408],[-36.59992,-9.98841],[-36.60351,-9.99504]]]}},{"type":"Feature","properties":{"name_indigenous_land":"Tingui Botó","abbrev_state":"AL","code_indigenous_land":45402},"geometry":{"type":"Polygon","coordinates":[[[-36.70616,-9.89348],[-36.70644,-9.90848],[-36.712,-9.91293],[-36.7118,-9.92593],[-36.71894,-9.93765],[-36.72872,-9.92858],[-36.7195,-9.93126],[-36.71644,-9.92431],[-36.72116,-9.92792],[-36.72589,-9.9232],[-36.72845,-9.92521],[-36.73231,-9.92213],[-36.71394,-9.90376],[-36.71672,-9.90181],[-36.70867,-9.8982],[-36.70616,-9.89348]]]}},{"type":"Feature","properties":{"name_indigenous_land":"Caiçara/Ilha de São Pedro","abbrev_state":"SE","code_indigenous_land":7901},"geometry":{"type":"Polygon","coordinates":[[[-37.39671,-9.7817],[-37.35651,-9.79045],[-37.34985,-9.79414],[-37.34213,-9.80503],[-37.37494,-9.8522],[-37.42891,-9.82928],[-37.39671,-9.7817]]]}},{"type":"Feature","properties":{"name_indigenous_land":"Pankararé","abbrev_state":"BA","code_indigenous_land":32301},"geometry":{"type":"Polygon","coordinates":[[[-38.45816,-9.41969],[-38.5139,-9.45145],[-38.51344,-9.46094],[-38.57444,-9.47365],[-38.58663,-9.48646],[-38.5955,-9.50392],[-38.60108,-9.55196],[-38.68262,-9.55244],[-38.68218,-9.39416],[-38.64478,-9.39135],[-38.64323,-9.41111],[-38.51183,-9.37416],[-38.50677,-9.36306],[-38.46227,-9.36767],[-38.44832,-9.39869],[-38.45816,-9.41969]]]}},{"type":"Feature","properties":{"name_indigenous_land":"Brejo do Burgo","abbrev_state":"BA","code_indigenous_land":6901},"geometry":{"type":"Polygon","coordinates":[[[-38.46709,-9.33452],[-38.44832,-9.39868],[-38.46227,-9.36766],[-38.50677,-9.36305],[-38.51182,-9.37416],[-38.64323,-9.41111],[-38.64478,-9.39135],[-38.60326,-9.33427],[-38.58077,-9.27331],[-38.46349,-9.29411],[-38.46709,-9.33452]]]}},{"type":"Feature","properties":{"name_indigenous_land":"Fazenda Cristo Rei","abbrev_state":"PE","code_indigenous_land":62201},"geometry":{"type":"Polygon","coordinates":[[[-38.15911,-9.26341],[-38.16652,-9.26839],[-38.1771,-9.28636],[-38.1862,-9.29285],[-38.19029,-9.29299],[-38.18682,-9.29015],[-38.18773,-9.2879],[-38.19641,-9.29363],[-38.20187,-9.29159],[-38.20326,-9.29464],[-38.23821,-9.25467],[-38.19852,-9.23584],[-38.15911,-9.26341]]]}},{"type":"Feature","properties":{"name_indigenous_land":"Geripancó","abbrev_state":"AL","code_indigenous_land":19402},"geometry":{"type":"Polygon","coordinates":[[[-38.04347,-9.23663],[-38.04458,-9.224],[-38.03905,-9.22716],[-38.02705,-9.22086],[-38.0342,-9.22706],[-38.03238,-9.23017],[-38.01358,-9.22493],[-38.03845,-9.23713],[-38.04347,-9.23663]]]}},{"type":"Feature","properties":{"name_indigenous_land":"Quixaba","abbrev_state":"BA","code_indigenous_land":37601},"geometry":{"type":"Polygon","coordinates":[[[-38.30208,-9.22793],[-38.30637,-9.22455],[-38.30425,-9.2235],[-38.30444,-9.22158],[-38.30124,-9.22133],[-38.30053,-9.22288],[-38.29881,-9.2243],[-38.30208,-9.22793]]]}},{"type":"Feature","properties":{"name_indigenous_land":"Kantaruré","abbrev_state":"BA","code_indigenous_land":20801},"geometry":{"type":"Polygon","coordinates":[[[-38.38323,-9.14032],[-38.36477,-9.17026],[-38.36875,-9.18207],[-38.39572,-9.18742],[-38.41662,-9.1588],[-38.38323,-9.14032]]]}},{"type":"Feature","properties":{"name_indigenous_land":"Pankararu","abbrev_state":"PE","code_indigenous_land":32401},"geometry":{"type":"Polygon","coordinates":[[[-38.25614,-9.11894],[-38.17841,-9.09365],[-38.15046,-9.1725],[-38.22941,-9.19805],[-38.25614,-9.11894]]]}},{"type":"Feature","properties":{"name_indigenous_land":"Fulni-ô","abbrev_state":"PE","code_indigenous_land":13101},"geometry":{"type":"Polygon","coordinates":[[[-37.0725,-9.1709],[-37.1689,-9.1514],[-37.14885,-9.05623],[-37.0528,-9.076],[-37.0725,-9.1709]]]}},{"type":"Feature","properties":{"name_indigenous_land":"Entre Serras","abbrev_state":"PE","code_indigenous_land":11301},"geometry":{"type":"Polygon","coordinates":[[[-38.26622,-9.0917],[-38.16217,-9.04603],[-38.14788,-9.09804],[-38.15584,-9.09935],[-38.15821,-9.10448],[-38.15559,-9.11036],[-38.14532,-9.10953],[-38.14435,-9.10689],[-38.11934,-9.16278],[-38.15046,-9.1725],[-38.17841,-9.09365],[-38.25642,-9.11903],[-38.26622,-9.0917]]]}},{"type":"Feature","properties":{"name_indigenous_land":"Tuxá de Inajá","abbrev_state":"PE","code_indigenous_land":12601},"geometry":{"type":"Polygon","coordinates":[[[-37.68772,-8.78444],[-37.70736,-8.76666],[-37.7053,-8.76289],[-37.68407,-8.78214],[-37.68772,-8.78444]]]}},{"type":"Feature","properties":{"name_indigenous_land":"Kariri de Serra Grande","abbrev_state":"PI","code_indigenous_land":73774},"geometry":{"type":"Polygon","coordinates":[[[-41.33601,-8.66902],[-41.33831,-8.67659],[-41.32973,-8.6933],[-41.32126,-8.69966],[-41.34542,-8.70988],[-41.36536,-8.70559],[-41.37842,-8.70661],[-41.37721,-8.70253],[-41.3849,-8.70047],[-41.37801,-8.69272],[-41.37968,-8.68015],[-41.37435,-8.68309],[-41.371,-8.68136],[-41.36513,-8.66458],[-41.35131,-8.6717],[-41.34813,-8.66244],[-41.33601,-8.66902]]]}},{"type":"Feature","properties":{"name_indigenous_land":"Tumbalalá","abbrev_state":"BA","code_indigenous_land":59201},"geometry":{"type":"Polygon","coordinates":[[[-39.376,-8.5326],[-39.36339,-8.53785],[-39.35463,-8.55012],[-39.34287,-8.55966],[-39.33248,-8.55816],[-39.31795,-8.56178],[-39.31007,-8.55939],[-39.28496,-8.56456],[-39.27525,-8.57764],[-39.27184,-8.59749],[-39.26412,-8.61378],[-39.27053,-8.62035],[-39.27717,-8.62211],[-39.28483,-8.61905],[-39.29665,-8.62465],[-39.29979,-8.63805],[-39.31838,-8.65076],[-39.32548,-8.66149],[-39.31824,-8.70287],[-39.30455,-8.71359],[-39.29577,-8.72858],[-39.31077,-8.73799],[-39.30738,-8.74612],[-39.31941,-8.74739],[-39.32481,-8.76082],[-39.33141,-8.76461],[-39.33026,-8.7774],[-39.33921,-8.77427],[-39.34654,-8.78534],[-39.35408,-8.78684],[-39.35528,-8.79911],[-39.35972,-8.8036],[-39.3679,-8.80311],[-39.36577,-8.81077],[-39.36993,-8.81527],[-39.37945,-8.82005],[-39.38503,-8.8158],[-39.40128,-8.81249],[-39.41836,-8.82791],[-39.42605,-8.82802],[-39.4452,-8.81238],[-39.44964,-8.80491],[-39.46375,-8.79897],[-39.46248,-8.78738],[-39.47576,-8.76492],[-39.45978,-8.74501],[-39.45103,-8.74825],[-39.44315,-8.7447],[-39.44079,-8.73962],[-39.4304,-8.73964],[-39.43311,-8.70342],[-39.43234,-8.70052],[-39.42376,-8.70046],[-39.41443,-8.69158],[-39.41184,-8.68128],[-39.41472,-8.66824],[-39.41085,-8.66458],[-39.40669,-8.64972],[-39.42356,-8.64337],[-39.43633,-8.65058],[-39.45078,-8.64642],[-39.45828,-8.64975],[-39.48299,-8.5953],[-39.47419,-8.59255],[-39.46018,-8.58092],[-39.45391,-8.56449],[-39.44585,-8.56133],[-39.43518,-8.5631],[-39.42895,-8.55963],[-39.41644,-8.541],[-39.38622,-8.5325],[-39.376,-8.5326]]]}},{"type":"Feature","properties":{"name_indigenous_land":"Kambiwá","abbrev_state":"PE","code_indigenous_land":20201},"geometry":{"type":"Polygon","coordinates":[[[-37.9131,-8.55294],[-37.88922,-8.55309],[-37.74565,-8.69392],[-37.83697,-8.77678],[-37.89263,-8.71345],[-37.99099,-8.61603],[-37.94003,-8.57139],[-37.9131,-8.55294]]]}},{"type":"Feature","properties":{"name_indigenous_land":"Kapinawá","abbrev_state":"PE","code_indigenous_land":20901},"geometry":{"type":"Polygon","coordinates":[[[-37.37529,-8.57156],[-37.34338,-8.58371],[-37.33552,-8.58366],[-37.32997,-8.5896],[-37.31466,-8.59295],[-37.30641,-8.59122],[-37.2915,-8.59882],[-37.28609,-8.59865],[-37.27731,-8.61203],[-37.26895,-8.6179],[-37.25666,-8.63605],[-37.25033,-8.64053],[-37.25644,-8.64867],[-37.26273,-8.64841],[-37.27153,-8.65469],[-37.27525,-8.65276],[-37.28317,-8.65651],[-37.28892,-8.66539],[-37.30134,-8.66966],[-37.32828,-8.65432],[-37.35345,-8.64709],[-37.38378,-8.62612],[-37.39016,-8.62715],[-37.41294,-8.61934],[-37.42391,-8.6204],[-37.44281,-8.60625],[-37.46198,-8.60527],[-37.44885,-8.59779],[-37.44535,-8.59173],[-37.44248,-8.59368],[-37.43109,-8.58732],[-37.42807,-8.58255],[-37.39722,-8.57266],[-37.37529,-8.57156]]]}},{"type":"Feature","properties":{"name_indigenous_land":"Ilhas da Tapera/São Félix/Porto","abbrev_state":"PE","code_indigenous_land":67501},"geometry":{"type":"MultiPolygon","coordinates":[[[[-39.59181,-8.59181],[-39.59404,-8.59574],[-39.5954,-8.59248],[-39.59399,-8.58977],[-39.59285,-8.58864],[-39.59181,-8.59181]]],[[[-39.59147,-8.5928],[-39.58488,-8.61159],[-39.5867,-8.61374],[-39.5937,-8.59656],[-39.59147,-8.5928]]],[[[-39.55433,-8.58973],[-39.55274,-8.58902],[-39.55286,-8.5929],[-39.55517,-8.59745],[-39.55586,-8.60012],[-39.56181,-8.60313],[-39.56843,-8.60404],[-39.57464,-8.60736],[-39.57615,-8.61171],[-39.57953,-8.61392],[-39.58085,-8.61718],[-39.58221,-8.61949],[-39.58357,-8.6206],[-39.58487,-8.62284],[-39.58851,-8.62318],[-39.58745,-8.62229],[-39.5875,-8.62087],[-39.5865,-8.61945],[-39.58686,-8.61805],[-39.58317,-8.61121],[-39.57824,-8.60552],[-39.57474,-8.60331],[-39.57276,-8.60159],[-39.57137,-8.59893],[-39.56496,-8.59476],[-39.55805,-8.58844],[-39.55433,-8.58973]]],[[[-39.56817,-8.60447],[-39.56604,-8.61082],[-39.56789,-8.61137],[-39.57018,-8.61359],[-39.57598,-8.6141],[-39.57895,-8.61636],[-39.57961,-8.61633],[-39.57924,-8.61596],[-39.57985,-8.6162],[-39.57951,-8.61547],[-39.57843,-8.6149],[-39.57622,-8.61259],[-39.57511,-8.6108],[-39.57464,-8.60881],[-39.5737,-8.6074],[-39.57115,-8.60648],[-39.56962,-8.60517],[-39.56817,-8.60447]]]]}},{"type":"Feature","properties":{"name_indigenous_land":"Pipipã","abbrev_state":"PE","code_indigenous_land":62801},"geometry":{"type":"Polygon","coordinates":[[[-38.06364,-8.44348],[-38.06191,-8.44867],[-38.04983,-8.44948],[-38.04693,-8.45562],[-38.03688,-8.45938],[-38.02708,-8.45866],[-38.02178,-8.44963],[-38.00685,-8.45681],[-38.00127,-8.45228],[-37.99738,-8.45583],[-37.99117,-8.45415],[-37.97751,-8.45832],[-37.96672,-8.45807],[-37.94993,-8.4489],[-37.92739,-8.45966],[-37.90999,-8.45377],[-37.89851,-8.46343],[-37.89197,-8.50775],[-37.88559,-8.50678],[-37.88828,-8.46882],[-37.87204,-8.47101],[-37.86079,-8.48818],[-37.85825,-8.51546],[-37.85339,-8.5264],[-37.86222,-8.53849],[-37.8892,-8.55308],[-37.91315,-8.55311],[-37.94043,-8.57178],[-37.99084,-8.61603],[-37.95681,-8.64981],[-37.9915,-8.70792],[-38.05769,-8.71412],[-38.07425,-8.69683],[-38.08558,-8.71195],[-38.09315,-8.71628],[-38.10065,-8.71565],[-38.12135,-8.70708],[-38.13795,-8.69363],[-38.14116,-8.6971],[-38.15395,-8.69565],[-38.15674,-8.69075],[-38.17223,-8.6866],[-38.18405,-8.67834],[-38.17743,-8.67638],[-38.17494,-8.66795],[-38.15634,-8.64969],[-38.14593,-8.65146],[-38.14867,-8.63407],[-38.15213,-8.63118],[-38.1509,-8.62637],[-38.13678,-8.62429],[-38.13189,-8.61913],[-38.13453,-8.61008],[-38.1274,-8.60155],[-38.11095,-8.59381],[-38.12251,-8.5325],[-38.12855,-8.53048],[-38.13881,-8.50717],[-38.1222,-8.49543],[-38.11419,-8.49346],[-38.08207,-8.46055],[-38.08088,-8.45397],[-38.07497,-8.45098],[-38.07325,-8.44574],[-38.06364,-8.44348]]]}},{"type":"Feature","properties":{"name_indigenous_land":"Truká - Ilha da Assunção","abbrev_state":"PE","code_indigenous_land":46602},"geometry":{"type":"MultiPolygon","coordinates":[[[[-39.38906,-8.52335],[-39.39209,-8.52338],[-39.39688,-8.52263],[-39.39973,-8.52338],[-39.40057,-8.52411],[-39.40198,-8.52464],[-39.40556,-8.52494],[-39.40954,-8.52598],[-39.41134,-8.52549],[-39.41279,-8.52594],[-39.41413,-8.52697],[-39.41731,-8.52799],[-39.4229,-8.53153],[-39.42463,-8.53284],[-39.42583,-8.53515],[-39.42793,-8.53717],[-39.42907,-8.53778],[-39.43149,-8.53796],[-39.43643,-8.53637],[-39.43864,-8.53619],[-39.44219,-8.53804],[-39.44372,-8.54007],[-39.44486,-8.54084],[-39.4456,-8.54234],[-39.44807,-8.54386],[-39.44983,-8.54574],[-39.45136,-8.54597],[-39.45187,-8.54555],[-39.45133,-8.54427],[-39.4505,-8.54416],[-39.44853,-8.54293],[-39.44561,-8.53505],[-39.44388,-8.5288],[-39.44228,-8.52739],[-39.44142,-8.5251],[-39.44049,-8.52361],[-39.43903,-8.52311],[-39.43721,-8.5204],[-39.43646,-8.51868],[-39.4364,-8.51657],[-39.43549,-8.51279],[-39.4342,-8.51093],[-39.43282,-8.51053],[-39.43158,-8.50944],[-39.43089,-8.5059],[-39.42945,-8.50476],[-39.42907,-8.50358],[-39.4273,-8.50222],[-39.42624,-8.50072],[-39.42441,-8.49922],[-39.42301,-8.49885],[-39.42142,-8.49914],[-39.41427,-8.4989],[-39.41127,-8.49948],[-39.41,-8.50026],[-39.40814,-8.50212],[-39.40378,-8.50344],[-39.40158,-8.50471],[-39.39796,-8.50563],[-39.39617,-8.50576],[-39.38994,-8.50824],[-39.38165,-8.51075],[-39.38006,-8.51081],[-39.37583,-8.51013],[-39.37263,-8.51073],[-39.37138,-8.50971],[-39.37047,-8.50815],[-39.36917,-8.50734],[-39.3662,-8.5077],[-39.36383,-8.50745],[-39.36068,-8.50778],[-39.35779,-8.50868],[-39.35517,-8.50898],[-39.35223,-8.5091],[-39.35063,-8.50873],[-39.3486,-8.50873],[-39.34355,-8.50988],[-39.34251,-8.51092],[-39.34211,-8.51227],[-39.34111,-8.51296],[-39.33945,-8.51396],[-39.3378,-8.51425],[-39.33764,-8.51507],[-39.33712,-8.51554],[-39.33438,-8.51605],[-39.3332,-8.51736],[-39.33112,-8.51827],[-39.32752,-8.51866],[-39.32558,-8.51923],[-39.32492,-8.51823],[-39.3227,-8.51789],[-39.31467,-8.51988],[-39.31112,-8.51946],[-39.30971,-8.52053],[-39.30778,-8.52394],[-39.30511,-8.52514],[-39.30231,-8.52491],[-39.29959,-8.5232],[-39.29803,-8.52314],[-39.29737,-8.52363],[-39.29706,-8.5244],[-39.29782,-8.52563],[-39.29821,-8.52724],[-39.29813,-8.52923],[-39.29695,-8.53061],[-39.29474,-8.5318],[-39.29352,-8.5342],[-39.29353,-8.53529],[-39.29466,-8.53756],[-39.29507,-8.53941],[-39.29455,-8.54543],[-39.29392,-8.54703],[-39.29154,-8.55002],[-39.29101,-8.55111],[-39.29418,-8.5508],[-39.29576,-8.55004],[-39.29756,-8.54971],[-39.29974,-8.5497],[-39.30159,-8.55],[-39.30246,-8.55048],[-39.30394,-8.55051],[-39.30692,-8.54884],[-39.30849,-8.54842],[-39.31347,-8.54772],[-39.31502,-8.54789],[-39.31723,-8.54703],[-39.31781,-8.54703],[-39.3196,-8.54806],[-39.32051,-8.5481],[-39.32097,-8.54871],[-39.32176,-8.54904],[-39.32637,-8.54734],[-39.32734,-8.54723],[-39.33037,-8.54798],[-39.33166,-8.54769],[-39.33292,-8.54672],[-39.3399,-8.54624],[-39.34516,-8.54532],[-39.34626,-8.54456],[-39.34881,-8.54365],[-39.35013,-8.54261],[-39.35128,-8.54065],[-39.35193,-8.53833],[-39.35415,-8.53675],[-39.35573,-8.53496],[-39.35538,-8.53439],[-39.35559,-8.53373],[-39.35711,-8.53251],[-39.35885,-8.53198],[-39.36157,-8.52953],[-39.36311,-8.52936],[-39.36818,-8.52696],[-39.3705,-8.52651],[-39.37444,-8.52461],[-39.37798,-8.52354],[-39.38168,-8.52296],[-39.38571,-8.5213],[-39.38691,-8.52172],[-39.38906,-8.52335]]],[[[-39.29633,-8.55094],[-39.29809,-8.55161],[-39.30069,-8.55203],[-39.30217,-8.55188],[-39.30253,-8.55152],[-39.30221,-8.55112],[-39.29925,-8.55044],[-39.2974,-8.55054],[-39.29633,-8.55094]]],[[[-39.31088,-8.55514],[-39.31151,-8.55474],[-39.31304,-8.55452],[-39.31932,-8.55499],[-39.32034,-8.55428],[-39.32068,-8.55198],[-39.31993,-8.55165],[-39.31678,-8.55179],[-39.31488,-8.55112],[-39.31287,-8.55088],[-39.31177,-8.55014],[-39.30947,-8.54949],[-39.30784,-8.54981],[-39.30589,-8.55108],[-39.30361,-8.55187],[-39.3041,-8.55235],[-39.30579,-8.55273],[-39.3069,-8.55412],[-39.31088,-8.55514]]],[[[-39.29694,-8.55327],[-39.29559,-8.55341],[-39.29482,-8.55429],[-39.2965,-8.55458],[-39.29901,-8.55443],[-39.29856,-8.55364],[-39.29694,-8.55327]]],[[[-39.30126,-8.5553],[-39.30541,-8.55716],[-39.30611,-8.55671],[-39.30441,-8.55554],[-39.30126,-8.5553]]],[[[-39.29484,-8.55494],[-39.2936,-8.55637],[-39.29347,-8.55674],[-39.29614,-8.55568],[-39.29614,-8.55536],[-39.29484,-8.55494]]],[[[-39.2973,-8.55737],[-39.29384,-8.55819],[-39.2935,-8.55862],[-39.29368,-8.55888],[-39.29699,-8.55888],[-39.29849,-8.55838],[-39.29876,-8.55772],[-39.2973,-8.55737]]],[[[-39.30344,-8.55806],[-39.30071,-8.55822],[-39.29841,-8.55883],[-39.29791,-8.55943],[-39.3033,-8.55941],[-39.30523,-8.55896],[-39.306,-8.55848],[-39.30415,-8.55843],[-39.30344,-8.55806]]],[[[-39.30425,-8.56028],[-39.29609,-8.56073],[-39.29767,-8.56202],[-39.29854,-8.56208],[-39.30415,-8.56168],[-39.30523,-8.56134],[-39.30547,-8.56086],[-39.30425,-8.56028]]],[[[-39.31451,-8.55507],[-39.3115,-8.5555],[-39.31192,-8.55581],[-39.31789,-8.55711],[-39.32202,-8.55706],[-39.32289,-8.55639],[-39.3226,-8.556],[-39.31781,-8.55584],[-39.31451,-8.55507]]],[[[-39.3115,-8.54881],[-39.31134,-8.54931],[-39.31324,-8.55039],[-39.31374,-8.55039],[-39.3125,-8.54886],[-39.3115,-8.54881]]],[[[-39.31322,-8.54841],[-39.31353,-8.5496],[-39.31411,-8.55018],[-39.31488,-8.5501],[-39.31509,-8.54952],[-39.31483,-8.54891],[-39.31322,-8.54841]]],[[[-39.31747,-8.54741],[-39.31507,-8.5482],[-39.31504,-8.54878],[-39.31557,-8.5495],[-39.31853,-8.54965],[-39.31988,-8.55024],[-39.32093,-8.54963],[-39.32011,-8.54854],[-39.31914,-8.54836],[-39.31747,-8.54741]]],[[[-39.33024,-8.54868],[-39.32836,-8.54894],[-39.32789,-8.54926],[-39.33108,-8.54976],[-39.33024,-8.54868]]],[[[-39.33613,-8.5468],[-39.3342,-8.54812],[-39.3328,-8.54955],[-39.33143,-8.55024],[-39.32651,-8.54939],[-39.32376,-8.55084],[-39.32199,-8.55264],[-39.32152,-8.55383],[-39.32178,-8.55507],[-39.32524,-8.55565],[-39.32773,-8.55528],[-39.33605,-8.55608],[-39.33833,-8.55576],[-39.34192,-8.55187],[-39.34369,-8.54918],[-39.34425,-8.5473],[-39.34295,-8.54672],[-39.33957,-8.54701],[-39.33613,-8.5468]]],[[[-39.33278,-8.54825],[-39.33135,-8.54841],[-39.33108,-8.54865],[-39.33196,-8.54923],[-39.3323,-8.54913],[-39.33278,-8.54825]]],[[[-39.46233,-8.56422],[-39.46293,-8.56607],[-39.46447,-8.56879],[-39.46418,-8.57231],[-39.4651,-8.57485],[-39.46661,-8.57688],[-39.46769,-8.57741],[-39.46894,-8.57921],[-39.46936,-8.57952],[-39.47007,-8.57947],[-39.47012,-8.5764],[-39.46843,-8.57297],[-39.46775,-8.57043],[-39.46296,-8.56401],[-39.4627,-8.56382],[-39.46233,-8.56422]]],[[[-39.45141,-8.54963],[-39.45278,-8.55082],[-39.45292,-8.55214],[-39.45421,-8.5546],[-39.45445,-8.55489],[-39.45535,-8.55497],[-39.45551,-8.55232],[-39.45516,-8.55108],[-39.45294,-8.54965],[-39.45141,-8.54963]]],[[[-39.45025,-8.54757],[-39.44784,-8.54833],[-39.44771,-8.54857],[-39.45056,-8.5486],[-39.45122,-8.5482],[-39.4512,-8.54794],[-39.45025,-8.54757]]],[[[-39.44787,-8.54915],[-39.44702,-8.54979],[-39.44855,-8.55],[-39.44951,-8.54963],[-39.44916,-8.54926],[-39.44787,-8.54915]]],[[[-39.42601,-8.54524],[-39.42733,-8.54857],[-39.43153,-8.55082],[-39.4328,-8.55071],[-39.43547,-8.54931],[-39.43497,-8.54849],[-39.42981,-8.54712],[-39.42601,-8.54524]]],[[[-39.42757,-8.54952],[-39.42868,-8.5514],[-39.42984,-8.55206],[-39.43087,-8.55219],[-39.43018,-8.5509],[-39.42757,-8.54952]]],[[[-39.42839,-8.54182],[-39.42582,-8.54254],[-39.42654,-8.54439],[-39.42712,-8.54478],[-39.43084,-8.54685],[-39.43444,-8.54714],[-39.43706,-8.54917],[-39.43796,-8.5493],[-39.43907,-8.55002],[-39.44023,-8.54946],[-39.44036,-8.54899],[-39.43838,-8.54692],[-39.43613,-8.54542],[-39.43431,-8.54365],[-39.43024,-8.54182],[-39.42839,-8.54182]]],[[[-39.43801,-8.53667],[-39.43632,-8.53709],[-39.43819,-8.53751],[-39.44126,-8.54058],[-39.443,-8.54098],[-39.44316,-8.54032],[-39.44192,-8.53868],[-39.43938,-8.53709],[-39.43801,-8.53667]]],[[[-39.43714,-8.53804],[-39.43486,-8.53825],[-39.43211,-8.53936],[-39.4346,-8.541],[-39.43862,-8.54177],[-39.44062,-8.54285],[-39.44189,-8.54378],[-39.44213,-8.54428],[-39.44485,-8.54608],[-39.44686,-8.54632],[-39.44697,-8.54542],[-39.44649,-8.54478],[-39.44107,-8.54143],[-39.4384,-8.53868],[-39.43714,-8.53804]]],[[[-39.44869,-8.54666],[-39.44723,-8.54629],[-39.44707,-8.54661],[-39.44771,-8.54692],[-39.44869,-8.54666]]],[[[-39.43573,-8.5418],[-39.43616,-8.54225],[-39.43959,-8.54354],[-39.44216,-8.5455],[-39.44295,-8.54531],[-39.43899,-8.54248],[-39.43573,-8.5418]]],[[[-39.41427,-8.53029],[-39.41607,-8.53281],[-39.41971,-8.53453],[-39.4211,-8.53472],[-39.42237,-8.53562],[-39.42155,-8.53431],[-39.41967,-8.53277],[-39.41427,-8.53029]]],[[[-39.41191,-8.52665],[-39.41314,-8.52786],[-39.41345,-8.52861],[-39.41513,-8.52984],[-39.41937,-8.53153],[-39.42455,-8.53513],[-39.42444,-8.53423],[-39.4223,-8.53221],[-39.41967,-8.53104],[-39.41761,-8.52924],[-39.41431,-8.52797],[-39.41258,-8.52677],[-39.41191,-8.52665]]],[[[-39.39527,-8.52328],[-39.39445,-8.52368],[-39.39595,-8.52392],[-39.3968,-8.52341],[-39.39527,-8.52328]]],[[[-39.39807,-8.52429],[-39.39328,-8.52481],[-39.39289,-8.52532],[-39.39556,-8.52624],[-39.39735,-8.52587],[-39.39989,-8.52592],[-39.39976,-8.52518],[-39.39807,-8.52429]]],[[[-39.39931,-8.52627],[-39.39815,-8.52651],[-39.39833,-8.52688],[-39.39931,-8.52701],[-39.39931,-8.52627]]],[[[-39.39981,-8.52984],[-39.39508,-8.53137],[-39.39997,-8.53309],[-39.40169,-8.53311],[-39.40298,-8.53261],[-39.40478,-8.53248],[-39.40232,-8.53182],[-39.39981,-8.52984]]],[[[-39.38232,-8.52799],[-39.37188,-8.53007],[-39.37019,-8.53073],[-39.36741,-8.53298],[-39.36926,-8.53287],[-39.37452,-8.53084],[-39.37719,-8.53015],[-39.38462,-8.52941],[-39.38462,-8.52883],[-39.38388,-8.5282],[-39.38232,-8.52799]]],[[[-39.36215,-8.52965],[-39.35943,-8.53183],[-39.35659,-8.53319],[-39.35561,-8.53416],[-39.35584,-8.53487],[-39.35811,-8.53348],[-39.35983,-8.53194],[-39.36371,-8.53035],[-39.36414,-8.52991],[-39.3641,-8.52939],[-39.36215,-8.52965]]],[[[-39.37167,-8.52657],[-39.36525,-8.52862],[-39.36441,-8.52916],[-39.36444,-8.52995],[-39.36601,-8.52924],[-39.36795,-8.52889],[-39.37091,-8.52715],[-39.37259,-8.5267],[-39.37546,-8.52482],[-39.37477,-8.52488],[-39.37167,-8.52657]]],[[[-39.3749,-8.52612],[-39.37279,-8.52732],[-39.37411,-8.5273],[-39.37747,-8.52612],[-39.37796,-8.52558],[-39.3749,-8.52612]]],[[[-39.44198,-8.52552],[-39.44235,-8.52679],[-39.44336,-8.52782],[-39.44357,-8.52761],[-39.44254,-8.52568],[-39.44198,-8.52552]]],[[[-39.43123,-8.50588],[-39.43163,-8.50894],[-39.43205,-8.50955],[-39.43287,-8.51016],[-39.43451,-8.51045],[-39.43448,-8.50781],[-39.43422,-8.50736],[-39.43353,-8.50675],[-39.43123,-8.50588]]],[[[-39.42872,-8.50016],[-39.42705,-8.50079],[-39.42769,-8.50174],[-39.42919,-8.50232],[-39.42935,-8.50071],[-39.42872,-8.50016]]],[[[-39.41773,-8.49704],[-39.41741,-8.49754],[-39.41532,-8.49825],[-39.41535,-8.49849],[-39.42,-8.49839],[-39.42074,-8.4981],[-39.41976,-8.49709],[-39.41857,-8.49685],[-39.41773,-8.49704]]],[[[-39.33412,-8.51182],[-39.33391,-8.51296],[-39.33443,-8.51415],[-39.33428,-8.51555],[-39.33454,-8.51563],[-39.33499,-8.51502],[-39.33639,-8.51526],[-39.33721,-8.51478],[-39.33721,-8.51404],[-39.33758,-8.51381],[-39.33737,-8.51344],[-39.33504,-8.51169],[-39.33412,-8.51182]]],[[[-39.33314,-8.51603],[-39.33155,-8.51677],[-39.33158,-8.51753],[-39.33288,-8.51679],[-39.33314,-8.51603]]],[[[-39.39101,-8.52698],[-39.38702,-8.5268],[-39.38612,-8.52706],[-39.38591,-8.52749],[-39.38662,-8.52815],[-39.38903,-8.52897],[-39.39075,-8.5301],[-39.39191,-8.53013],[-39.39209,-8.52794],[-39.39188,-8.52749],[-39.39101,-8.52698]]],[[[-39.39742,-8.50484],[-39.39677,-8.50512],[-39.39779,-8.50493],[-39.39742,-8.50484]]],[[[-39.38451,-8.52235],[-39.38325,-8.52299],[-39.37608,-8.52479],[-39.3749,-8.52556],[-39.37982,-8.52487],[-39.38174,-8.52403],[-39.38567,-8.52412],[-39.3873,-8.52373],[-39.3873,-8.52336],[-39.38557,-8.52227],[-39.38451,-8.52235]]],[[[-39.45404,-8.55599],[-39.44854,-8.55673],[-39.44801,-8.55726],[-39.44952,-8.55758],[-39.4515,-8.55932],[-39.45266,-8.55945],[-39.45391,-8.56085],[-39.45478,-8.56107],[-39.45602,-8.56062],[-39.45623,-8.56011],[-39.45533,-8.55708],[-39.45404,-8.55599]]],[[[-39.45111,-8.54994],[-39.44899,-8.55057],[-39.44711,-8.55065],[-39.44347,-8.55063],[-39.44177,-8.55002],[-39.43908,-8.55065],[-39.43514,-8.55039],[-39.43408,-8.55086],[-39.43284,-8.55213],[-39.4334,-8.55253],[-39.4367,-8.55282],[-39.43799,-8.55322],[-39.44053,-8.5543],[-39.4417,-8.5553],[-39.44299,-8.55541],[-39.44331,-8.55575],[-39.45055,-8.55626],[-39.45367,-8.55528],[-39.45399,-8.55459],[-39.4529,-8.55306],[-39.45227,-8.55105],[-39.45111,-8.54994]]],[[[-39.44288,-8.55771],[-39.44125,-8.55739],[-39.44064,-8.55729],[-39.44103,-8.55787],[-39.44209,-8.55845],[-39.44288,-8.55816],[-39.44288,-8.55771]]],[[[-39.43942,-8.55409],[-39.43522,-8.55316],[-39.434,-8.55359],[-39.43424,-8.55396],[-39.43696,-8.55504],[-39.43829,-8.55626],[-39.4454,-8.55726],[-39.4473,-8.55715],[-39.44746,-8.55668],[-39.44341,-8.55626],[-39.44127,-8.55549],[-39.43942,-8.55409]]]]}},{"type":"Feature","properties":{"name_indigenous_land":"Truká","abbrev_state":"PE","code_indigenous_land":46601},"geometry":{"type":"Polygon","coordinates":[[[-39.42224,-8.49886],[-39.4115,-8.49941],[-39.39153,-8.50754],[-39.39071,-8.52339],[-39.41279,-8.52594],[-39.42907,-8.53778],[-39.43864,-8.53619],[-39.45179,-8.54575],[-39.43529,-8.51245],[-39.42224,-8.49886]]]}},{"type":"Feature","properties":{"name_indigenous_land":"Xukuru de Cimbres","abbrev_state":"PE","code_indigenous_land":70201},"geometry":{"type":"Polygon","coordinates":[[[-36.83687,-8.40235],[-36.82025,-8.40539],[-36.81315,-8.42681],[-36.82321,-8.42598],[-36.8284,-8.4368],[-36.82561,-8.44215],[-36.82769,-8.45258],[-36.83125,-8.45697],[-36.84211,-8.45461],[-36.83715,-8.44358],[-36.84562,-8.41801],[-36.83687,-8.40235]]]}},{"type":"Feature","properties":{"name_indigenous_land":"Pankará da Serra do Arapuá","abbrev_state":"PE","code_indigenous_land":71001},"geometry":{"type":"Polygon","coordinates":[[[-38.66802,-8.35183],[-38.65963,-8.37044],[-38.65204,-8.3719],[-38.64428,-8.38299],[-38.67026,-8.42052],[-38.67537,-8.43932],[-38.68242,-8.43698],[-38.6699,-8.46303],[-38.65857,-8.46448],[-38.65842,-8.47149],[-38.66439,-8.47695],[-38.66423,-8.48636],[-38.66916,-8.48868],[-38.66954,-8.49438],[-38.67918,-8.48221],[-38.69009,-8.47922],[-38.69255,-8.47426],[-38.70419,-8.47484],[-38.71238,-8.47953],[-38.72016,-8.47445],[-38.73132,-8.47346],[-38.75515,-8.47798],[-38.77149,-8.43417],[-38.7833,-8.43878],[-38.7852,-8.4353],[-38.78163,-8.42408],[-38.78549,-8.42078],[-38.78468,-8.4175],[-38.771,-8.41277],[-38.76249,-8.40356],[-38.7508,-8.39709],[-38.74485,-8.39723],[-38.73404,-8.38894],[-38.73952,-8.36786],[-38.73203,-8.36334],[-38.73023,-8.35484],[-38.71368,-8.34262],[-38.69996,-8.3425],[-38.68993,-8.34688],[-38.66655,-8.34116],[-38.66802,-8.35183]]]}},{"type":"Feature","properties":{"name_indigenous_land":"Xukuru","abbrev_state":"PE","code_indigenous_land":50801},"geometry":{"type":"Polygon","coordinates":[[[-36.63654,-8.30548],[-36.67136,-8.33169],[-36.67908,-8.34059],[-36.68191,-8.35046],[-36.68643,-8.35216],[-36.6978,-8.34753],[-36.70255,-8.34972],[-36.7036,-8.35653],[-36.70682,-8.3585],[-36.73821,-8.36384],[-36.75057,-8.36895],[-36.74266,-8.37688],[-36.77243,-8.38912],[-36.78662,-8.38724],[-36.8367,-8.39148],[-36.84068,-8.39531],[-36.8503,-8.39255],[-36.85852,-8.39506],[-36.88413,-8.37106],[-36.90065,-8.34126],[-36.86481,-8.32219],[-36.8562,-8.29436],[-36.84081,-8.30171],[-36.83163,-8.29942],[-36.82275,-8.30354],[-36.8122,-8.29374],[-36.79861,-8.29085],[-36.78929,-8.2775],[-36.79737,-8.25292],[-36.75289,-8.25973],[-36.73038,-8.25757],[-36.69942,-8.26359],[-36.69092,-8.25851],[-36.68618,-8.27035],[-36.68324,-8.2652],[-36.63318,-8.28451],[-36.63654,-8.30548]]]}},{"type":"Feature","properties":{"name_indigenous_land":"Atikum","abbrev_state":"PE","code_indigenous_land":4501},"geometry":{"type":"Polygon","coordinates":[[[-38.80402,-8.22215],[-38.75021,-8.24034],[-38.74056,-8.26145],[-38.75274,-8.30979],[-38.77591,-8.33454],[-38.89741,-8.35635],[-38.91925,-8.33754],[-38.80402,-8.22215]]]}},{"type":"Feature","properties":{"name_indigenous_land":"Lagoa Encantada","abbrev_state":"CE","code_indigenous_land":24901},"geometry":{"type":"Polygon","coordinates":[[[-38.28486,-3.95846],[-38.26588,-3.96651],[-38.25829,-3.96633],[-38.24917,-3.97804],[-38.24715,-3.98387],[-38.25499,-3.99808],[-38.25381,-4.0071],[-38.27083,-4.00473],[-38.28107,-3.98863],[-38.29938,-3.98675],[-38.29835,-3.9831],[-38.30098,-3.98295],[-38.29744,-3.97224],[-38.28351,-3.97021],[-38.28672,-3.96],[-38.28486,-3.95846]]]}},{"type":"Feature","properties":{"name_indigenous_land":"Pitaguary","abbrev_state":"CE","code_indigenous_land":36201},"geometry":{"type":"Polygon","coordinates":[[[-38.62494,-3.90837],[-38.62159,-3.90711],[-38.62738,-3.93076],[-38.61837,-3.94066],[-38.60998,-3.94026],[-38.61043,-3.94587],[-38.64078,-3.97274],[-38.64369,-3.95233],[-38.65053,-3.94939],[-38.64809,-3.94502],[-38.65427,-3.94177],[-38.65526,-3.9335],[-38.65162,-3.93441],[-38.64742,-3.92683],[-38.6496,-3.92597],[-38.64255,-3.91972],[-38.63393,-3.91437],[-38.62858,-3.91636],[-38.62813,-3.90906],[-38.63498,-3.90879],[-38.6347,-3.9036],[-38.62494,-3.90837]]]}},{"type":"Feature","properties":{"name_indigenous_land":"Tapeba","abbrev_state":"CE","code_indigenous_land":54601},"geometry":{"type":"MultiPolygon","coordinates":[[[[-38.69327,-3.67263],[-38.6835,-3.68118],[-38.67837,-3.68173],[-38.67868,-3.67809],[-38.67629,-3.67841],[-38.67118,-3.68484],[-38.67856,-3.68353],[-38.68689,-3.70631],[-38.697,-3.71711],[-38.69576,-3.72354],[-38.70553,-3.72466],[-38.70378,-3.73628],[-38.69092,-3.73918],[-38.69193,-3.74519],[-38.68698,-3.74547],[-38.6814,-3.7346],[-38.68101,-3.73956],[-38.67665,-3.73866],[-38.67665,-3.74304],[-38.67029,-3.7352],[-38.67178,-3.74772],[-38.66575,-3.74911],[-38.64631,-3.74735],[-38.63798,-3.74309],[-38.63696,-3.73955],[-38.63452,-3.74009],[-38.62649,-3.70718],[-38.6308,-3.7028],[-38.62235,-3.7015],[-38.6217,-3.70949],[-38.61847,-3.71049],[-38.621,-3.71714],[-38.61727,-3.71885],[-38.61736,-3.72228],[-38.61148,-3.72343],[-38.61501,-3.7333],[-38.61794,-3.73278],[-38.62736,-3.74141],[-38.63087,-3.7495],[-38.6472,-3.75776],[-38.65379,-3.75135],[-38.66096,-3.74979],[-38.6767,-3.76314],[-38.67907,-3.76112],[-38.67526,-3.77233],[-38.68827,-3.77935],[-38.68779,-3.77262],[-38.69307,-3.77174],[-38.69559,-3.77888],[-38.70649,-3.78196],[-38.71728,-3.79584],[-38.72004,-3.79348],[-38.71148,-3.78383],[-38.72278,-3.78016],[-38.72056,-3.77364],[-38.74399,-3.77674],[-38.73762,-3.74914],[-38.74533,-3.74084],[-38.74353,-3.73728],[-38.73793,-3.74014],[-38.73468,-3.73502],[-38.73097,-3.742],[-38.72095,-3.74478],[-38.71326,-3.74273],[-38.70913,-3.7329],[-38.70887,-3.71264],[-38.6922,-3.70535],[-38.69144,-3.70202],[-38.70343,-3.6831],[-38.7015,-3.67563],[-38.69039,-3.68028],[-38.69029,-3.67557],[-38.69541,-3.67234],[-38.69327,-3.67263]]],[[[-38.69321,-3.71568],[-38.68343,-3.72125],[-38.68455,-3.72894],[-38.68161,-3.72842],[-38.67933,-3.7215],[-38.67526,-3.72569],[-38.67529,-3.73473],[-38.68465,-3.73345],[-38.68369,-3.72973],[-38.69014,-3.73122],[-38.68686,-3.72018],[-38.69426,-3.71836],[-38.69321,-3.71568]]]]}},{"type":"Feature","properties":{"name_indigenous_land":"Taba dos Anacé","abbrev_state":"CE","code_indigenous_land":73714},"geometry":{"type":"Polygon","coordinates":[[[-38.71173,-3.6908],[-38.70887,-3.692],[-38.71065,-3.69502],[-38.7072,-3.694],[-38.71701,-3.70845],[-38.71563,-3.71405],[-38.72121,-3.71285],[-38.73047,-3.71969],[-38.74794,-3.71032],[-38.73435,-3.70082],[-38.72554,-3.70501],[-38.71173,-3.6908]]]}},{"type":"Feature","properties":{"name_indigenous_land":"Tremembé da Barra do Mundaú","abbrev_state":"CE","code_indigenous_land":70601},"geometry":{"type":"Polygon","coordinates":[[[-39.42189,-3.15519],[-39.39818,-3.17659],[-39.37927,-3.18451],[-39.39803,-3.18329],[-39.40345,-3.19013],[-39.40434,-3.18504],[-39.408,-3.18424],[-39.40949,-3.19354],[-39.40609,-3.19932],[-39.40987,-3.20718],[-39.41712,-3.20081],[-39.42283,-3.20021],[-39.43083,-3.20771],[-39.441,-3.20752],[-39.44795,-3.20372],[-39.44772,-3.20815],[-39.45309,-3.21123],[-39.46256,-3.21133],[-39.45443,-3.20713],[-39.46471,-3.2049],[-39.4696,-3.2002],[-39.45805,-3.15737],[-39.42328,-3.15755],[-39.42189,-3.15519]]]}},{"type":"Feature","properties":{"name_indigenous_land":"Córrego João Pereira","abbrev_state":"CE","code_indigenous_land":10401},"geometry":{"type":"Polygon","coordinates":[[[-39.98479,-3.13147],[-39.98329,-3.11937],[-39.99193,-3.11349],[-40.01041,-3.11904],[-40.01182,-3.1043],[-39.93029,-3.0787],[-39.92701,-3.08153],[-39.92774,-3.11875],[-39.94096,-3.11953],[-39.95424,-3.12569],[-39.96573,-3.12448],[-39.98479,-3.13147]]]}},{"type":"Feature","properties":{"name_indigenous_land":"Tremembé de Queimadas","abbrev_state":"CE","code_indigenous_land":64601},"geometry":{"type":"MultiPolygon","coordinates":[[[[-40.03465,-3.0823],[-40.02855,-3.08034],[-40.01476,-3.07968],[-40.01248,-3.09765],[-40.00758,-3.10306],[-40.01182,-3.1043],[-40.01088,-3.11442],[-40.01953,-3.11464],[-40.01771,-3.09866],[-40.04092,-3.10051],[-40.04579,-3.0915],[-40.03287,-3.08564],[-40.03465,-3.0823]]],[[[-40.02882,-3.07858],[-40.03285,-3.07949],[-40.03309,-3.07874],[-40.02882,-3.07858]]]]}},{"type":"Feature","properties":{"name_indigenous_land":"Tremembé de Almofala","abbrev_state":"CE","code_indigenous_land":46001},"geometry":{"type":"Polygon","coordinates":[[[-39.7716,-2.98368],[-39.80779,-3.0122],[-39.83007,-2.99312],[-39.85282,-2.98634],[-39.87668,-2.98551],[-39.83597,-2.95512],[-39.83124,-2.95538],[-39.82419,-2.93139],[-39.79826,-2.94875],[-39.80332,-2.9689],[-39.79331,-2.96647],[-39.79601,-2.95668],[-39.79001,-2.95126],[-39.76793,-2.96235],[-39.7716,-2.98368]]]}},{"type":"Feature","properties":{"name_indigenous_land":"Fazenda Peró","abbrev_state":"PE","code_indigenous_land":73836},"geometry":{"type":"Polygon","coordinates":[[[-37.11026,-9.16332],[-37.10951,-9.16963],[-37.12481,-9.16615],[-37.12487,-9.16753],[-37.12878,-9.16691],[-37.12887,-9.16816],[-37.1314,-9.16844],[-37.13586,-9.16804],[-37.13567,-9.16503],[-37.12536,-9.16042],[-37.11026,-9.16332]]]}}]}